{"type":"FeatureCollection","bbox":[8.663658,49.403868,8.702729,49.434979],"features":[{"type":"Feature","properties":{"group_index":0,"value":200,"center":[8.681494991825476,49.41459939191395],"area":1445453.08,"reachfactor":0.0149,"total_pop":10403},"geometry":{"coordinates":[[[8.671428,49.41946],[8.67457,49.412583],[8.675604,49.408677],[8.676539,49.408287],[8.676897,49.408248],[8.68152,49.411796],[8.686325,49.412709],[8.686868,49.412776],[8.691583,49.413159],[8.691707,49.413161],[8.693233,49.417182],[8.69317,49.417536],[8.690386,49.418706],[8.684954,49.420673],[8.680829,49.422107],[8.677579,49.42254],[8.671425,49.41982],[8.671428,49.41946]]],"type":"Polygon"}},{"type":"Feature","properties":{"group_index":0,"value":300,"center":[8.681494991825476,49.41459939191395],"area":4172411.62,"reachfactor":0.0191,"total_pop":24423},"geometry":{"coordinates":[[[8.667844,49.42021],[8.664611,49.419594],[8.664507,49.419593],[8.663658,49.419105],[8.663729,49.418752],[8.66453,49.418653],[8.667794,49.417529],[8.668429,49.409564],[8.668407,49.409204],[8.669094,49.408511],[8.671675,49.405974],[8.677146,49.403868],[8.684342,49.407575],[8.691929,49.410792],[8.700348,49.413689],[8.700766,49.413777],[8.700692,49.41413],[8.694411,49.418176],[8.693387,49.420158],[8.693259,49.4204],[8.692927,49.420864],[8.692914,49.42088],[8.687958,49.424478],[8.684071,49.428149],[8.683394,49.428503],[8.682938,49.428325],[8.677556,49.427376],[8.672706,49.428782],[8.670987,49.427907],[8.670692,49.4277],[8.667844,49.42021]]],"type":"Polygon"}},{"type":"Feature","properties":{"group_index":1,"value":200,"center":[8.686507287397566,49.41942866781333],"area":1535358.57,"reachfactor":0.0158,"total_pop":14343},"geometry":{"coordinates":[[[8.683251,49.428166],[8.683131,49.427256],[8.68311,49.427076],[8.679341,49.419098],[8.678893,49.418878],[8.677798,49.418218],[8.677498,49.418018],[8.676268,49.417191],[8.676263,49.417013],[8.676331,49.416829],[8.677842,49.415777],[8.685279,49.412502],[8.686907,49.412601],[8.692095,49.413088],[8.694048,49.413585],[8.694099,49.413941],[8.694196,49.414827],[8.694411,49.418176],[8.694259,49.422552],[8.692194,49.425033],[8.691308,49.425777],[8.686783,49.427299],[8.683557,49.428356],[8.683279,49.428293],[8.683251,49.428166]]],"type":"Polygon"}},{"type":"Feature","properties":{"group_index":1,"value":300,"center":[8.686507287397566,49.41942866781333],"area":3974517.58,"reachfactor":0.0182,"total_pop":27004},"geometry":{"coordinates":[[[8.678833,49.431169],[8.6765,49.427154],[8.671589,49.420018],[8.670535,49.419774],[8.670323,49.419738],[8.670102,49.419699],[8.669742,49.419617],[8.669383,49.419534],[8.669464,49.419184],[8.67457,49.412583],[8.676534,49.408889],[8.676714,49.408843],[8.676893,49.408912],[8.68152,49.411796],[8.686939,49.410119],[8.692186,49.408953],[8.692608,49.408964],[8.696605,49.411916],[8.70213,49.414059],[8.702729,49.414203],[8.702645,49.414553],[8.697796,49.422089],[8.697751,49.422331],[8.697686,49.422444],[8.697542,49.422599],[8.697325,49.422741],[8.697042,49.422867],[8.690861,49.428726],[8.690671,49.429238],[8.684571,49.433342],[8.682359,49.434979],[8.682021,49.434856],[8.678833,49.431169]]],"type":"Polygon"}}],"metadata":{"attribution":"openrouteservice.org | OpenStreetMap contributors","service":"isochrones","timestamp":1785973606453,"query":{"profile":"driving-car","profileName":"driving-car","locations":[[8.681495,49.41461],[8.686507,49.41943]],"range":[300,200],"options":{"avoid_features":["highways","tollways","ferries"],"round_trip":{"length":10000,"points":5,"seed":1}},"area_units":"m","attributes":["area","reachfactor","total_pop"]},"engine":{"version":"9.9.0","build_date":"2026-06-12T10:08:58Z","graph_date":"2026-08-02T11:57:12Z","osm_date":"2026-07-27T15:16:41Z"}}}