{"type":"FeatureCollection","bbox":[8.663481,49.401321,8.706189,49.433518],"features":[{"type":"Feature","properties":{"group_index":0,"value":200,"center":[8.681496287138598,49.414600974676375],"area":2564521.09,"reachfactor":0.4232,"total_pop":16240},"geometry":{"coordinates":[[[8.673024,49.420385],[8.671225,49.416993],[8.670567,49.413558],[8.670579,49.413422],[8.671151,49.408756],[8.671768,49.408004],[8.673531,49.406204],[8.677202,49.405404],[8.677255,49.405405],[8.679449,49.406003],[8.680821,49.407665],[8.680814,49.407866],[8.684272,49.412527],[8.684607,49.412555],[8.686425,49.412251],[8.690462,49.41124],[8.690654,49.411154],[8.691041,49.411115],[8.691042,49.411115],[8.694949,49.411505],[8.696952,49.411783],[8.69741,49.413739],[8.697569,49.414662],[8.694057,49.41895],[8.689378,49.421558],[8.686731,49.422536],[8.681819,49.424466],[8.680587,49.424807],[8.680416,49.424778],[8.680033,49.424706],[8.675458,49.42291],[8.673801,49.421441],[8.673024,49.420385]]],"type":"Polygon"}},{"type":"Feature","properties":{"group_index":0,"value":300,"center":[8.681496287138598,49.414600974676375],"area":4859069.4,"reachfactor":0.3564,"total_pop":30498},"geometry":{"coordinates":[[[8.666996,49.418965],[8.666349,49.414814],[8.66356,49.410405],[8.663481,49.410054],[8.66639,49.405181],[8.666798,49.404982],[8.67111,49.403566],[8.67641,49.403766],[8.678152,49.402752],[8.679276,49.401597],[8.679507,49.401321],[8.680076,49.401412],[8.684836,49.40497],[8.684924,49.405014],[8.684937,49.405022],[8.684957,49.405034],[8.687303,49.407036],[8.691887,49.407027],[8.692702,49.406873],[8.692838,49.406852],[8.694318,49.408622],[8.698823,49.412071],[8.703886,49.414408],[8.704498,49.4145],[8.704864,49.414549],[8.705526,49.414669],[8.706189,49.414789],[8.706124,49.415143],[8.705462,49.415023],[8.7048,49.414903],[8.704451,49.414857],[8.704093,49.41481],[8.703824,49.414762],[8.703562,49.414716],[8.699327,49.414266],[8.697686,49.414663],[8.694411,49.418176],[8.694057,49.41895],[8.693533,49.421627],[8.693043,49.422245],[8.690986,49.423402],[8.690673,49.42358],[8.689248,49.424332],[8.684398,49.42734],[8.683637,49.427837],[8.683305,49.427978],[8.681345,49.427546],[8.676674,49.426467],[8.674727,49.42589],[8.674433,49.425682],[8.672934,49.424496],[8.671191,49.422219],[8.666998,49.419324],[8.666996,49.418965]]],"type":"Polygon"}},{"type":"Feature","properties":{"group_index":1,"value":200,"center":[8.686507286922733,49.41942863767977],"area":2735892.89,"reachfactor":0.4515,"total_pop":20723},"geometry":{"coordinates":[[[8.679672,49.427483],[8.676903,49.42306],[8.675464,49.421447],[8.673243,49.418161],[8.673243,49.418154],[8.673374,49.417093],[8.674179,49.41519],[8.674626,49.41414],[8.677822,49.412533],[8.68196,49.410697],[8.682048,49.410681],[8.683038,49.410636],[8.686465,49.410445],[8.692299,49.40967],[8.692353,49.409662],[8.692801,49.409688],[8.69286,49.409695],[8.692862,49.409695],[8.692921,49.409702],[8.693654,49.40996],[8.696393,49.411794],[8.697415,49.4137],[8.69741,49.413739],[8.694925,49.418845],[8.694999,49.419454],[8.695066,49.420513],[8.69529,49.424106],[8.692585,49.426634],[8.688256,49.427974],[8.683734,49.429876],[8.683689,49.429881],[8.683655,49.429885],[8.68361,49.429889],[8.680094,49.42834],[8.679672,49.427483]]],"type":"Polygon"}},{"type":"Feature","properties":{"group_index":1,"value":300,"center":[8.686507286922733,49.41942863767977],"area":4170066.41,"reachfactor":0.3058,"total_pop":29468},"geometry":{"coordinates":[[[8.674685,49.426814],[8.672335,49.422461],[8.669649,49.419599],[8.669548,49.41933],[8.671801,49.4158],[8.674352,49.41246],[8.676519,49.409154],[8.676879,49.40916],[8.682048,49.410681],[8.684539,49.409731],[8.6872,49.408092],[8.692372,49.406159],[8.692842,49.406021],[8.692888,49.406011],[8.694134,49.406799],[8.695222,49.408676],[8.69992,49.412298],[8.705431,49.414652],[8.705999,49.414755],[8.705934,49.415109],[8.705367,49.415006],[8.7048,49.414903],[8.704451,49.414857],[8.704093,49.41481],[8.703824,49.414762],[8.703562,49.414716],[8.702692,49.414379],[8.701489,49.414091],[8.699327,49.414266],[8.697614,49.414812],[8.695579,49.419004],[8.695417,49.422114],[8.69544,49.422474],[8.69529,49.424106],[8.693961,49.426289],[8.691046,49.430321],[8.69091,49.430385],[8.689029,49.430946],[8.685205,49.432049],[8.682662,49.43349],[8.68257,49.433518],[8.682213,49.43347],[8.677605,49.431001],[8.674685,49.426814]]],"type":"Polygon"}}],"metadata":{"attribution":"openrouteservice.org | OpenStreetMap contributors","service":"isochrones","timestamp":1785973718234,"query":{"profile":"cycling-road","profileName":"cycling-road","locations":[[8.681495,49.41461],[8.686507,49.41943]],"range":[300,200],"options":{"round_trip":{"length":10000,"points":5,"seed":1}},"area_units":"m","attributes":["area","reachfactor","total_pop"]},"engine":{"version":"9.9.0","build_date":"2026-06-12T10:08:58Z","graph_date":"2026-07-29T03:00:50Z","osm_date":"2026-07-20T00:00:00Z"}}}