{"type":"FeatureCollection","bbox":[8.681496,49.414554,8.69198,49.420514],"features":[{"bbox":[8.681496,49.414554,8.69198,49.420514],"type":"Feature","properties":{"segments":[{"distance":1607.6,"duration":258.7,"steps":[{"distance":61.3,"duration":12.3,"type":11,"instruction":"Head east on Gerhart-Hauptmann-Straße","name":"Gerhart-Hauptmann-Straße","way_points":[0,3]},{"distance":316.6,"duration":63.3,"type":0,"instruction":"Turn left onto Maulbeerweg","name":"Maulbeerweg","way_points":[3,10]},{"distance":680.9,"duration":94.3,"type":1,"instruction":"Turn right onto Mönchhofstraße","name":"Mönchhofstraße","way_points":[10,32]},{"distance":418.2,"duration":62.7,"type":0,"instruction":"Turn left onto Handschuhsheimer Landstraße, B 3","name":"Handschuhsheimer Landstraße, B 3","way_points":[32,48]},{"distance":130.6,"duration":26.1,"type":0,"instruction":"Turn left onto Roonstraße","name":"Roonstraße","way_points":[48,50]},{"distance":0,"duration":0,"type":10,"instruction":"Arrive at Roonstraße, on the left","name":"-","way_points":[50,50]}]}],"way_points":[0,50],"summary":{"distance":1607.6,"duration":258.7}},"geometry":{"type":"LineString","coordinates":[[8.681496,49.414601],[8.68157,49.414605],[8.682287,49.414564],[8.682339,49.414554],[8.682361,49.414601],[8.682569,49.415701],[8.682572,49.415738],[8.682571,49.415779],[8.682673,49.416497],[8.682675,49.417319],[8.682676,49.417387],[8.682781,49.417386],[8.683023,49.417384],[8.68338,49.41738],[8.683595,49.417372],[8.68371,49.417368],[8.684668,49.41737],[8.685294,49.417365],[8.68536,49.417365],[8.685442,49.417365],[8.686407,49.417365],[8.686806,49.417365],[8.68703,49.41736],[8.687413,49.417352],[8.687467,49.417351],[8.687547,49.417349],[8.688793,49.417395],[8.690257,49.417444],[8.690355,49.417442],[8.690445,49.417435],[8.691418,49.417172],[8.691825,49.417093],[8.69198,49.417121],[8.691931,49.417235],[8.691817,49.417369],[8.691428,49.417726],[8.691073,49.418051],[8.691014,49.418103],[8.690936,49.418188],[8.690946,49.41825],[8.69092,49.418378],[8.690912,49.418411],[8.690667,49.418993],[8.690621,49.419095],[8.690391,49.419368],[8.690275,49.419577],[8.690123,49.419833],[8.689854,49.420217],[8.689653,49.420514],[8.688601,49.420394],[8.68787,49.420327]]}}],"metadata":{"attribution":"openrouteservice.org | OpenStreetMap contributors","service":"routing","timestamp":1785919140174,"query":{"coordinates":[[8.681495,49.41461],[8.687872,49.420318]],"profile":"cycling-road","profileName":"cycling-road","format":"json"},"engine":{"version":"9.9.0","build_date":"2026-06-12T10:08:58Z","graph_date":"2026-07-29T03:00:50Z","osm_date":"2026-07-20T00:00:00Z"}}}