{"type":"FeatureCollection","bbox":[8.676436,49.411734,8.691666,49.423098],"features":[{"type":"Feature","properties":{"group_index":0,"value":200,"center":[8.681496287138598,49.414600974676375],"area":186537.22,"reachfactor":1,"total_pop":1867},"geometry":{"coordinates":[[[8.677695,49.414152],[8.679171,49.412704],[8.679281,49.412661],[8.681906,49.412189],[8.681991,49.412209],[8.68218,49.412303],[8.684572,49.413644],[8.684721,49.413755],[8.684734,49.414681],[8.684697,49.415039],[8.684684,49.415079],[8.683734,49.415907],[8.68207,49.416979],[8.681646,49.417112],[8.681534,49.417084],[8.680129,49.416642],[8.677691,49.414512],[8.677695,49.414152]]],"type":"Polygon"}},{"type":"Feature","properties":{"group_index":0,"value":300,"center":[8.681496287138598,49.414600974676375],"area":379935.77,"reachfactor":1,"total_pop":3839},"geometry":{"coordinates":[[[8.676436,49.414884],[8.676519,49.413722],[8.677242,49.412544],[8.677736,49.412076],[8.678407,49.411931],[8.68033,49.411734],[8.68152,49.411796],[8.68466,49.412332],[8.68679,49.413977],[8.686754,49.414335],[8.686056,49.415418],[8.685758,49.415834],[8.683469,49.417485],[8.683356,49.417561],[8.683248,49.417631],[8.68161,49.418414],[8.68144,49.41839],[8.68009,49.417711],[8.679774,49.417538],[8.679513,49.417362],[8.677046,49.415559],[8.676436,49.414884]]],"type":"Polygon"}},{"type":"Feature","properties":{"group_index":1,"value":200,"center":[8.686507286922733,49.41942863767977],"area":172887.45,"reachfactor":1,"total_pop":1357},"geometry":{"coordinates":[[[8.682841,49.419028],[8.682903,49.41884],[8.682996,49.418767],[8.683152,49.418669],[8.685117,49.41772],[8.687387,49.417173],[8.687409,49.417172],[8.688916,49.418294],[8.690339,49.419821],[8.690277,49.419925],[8.69027,49.419936],[8.690199,49.420037],[8.689384,49.420664],[8.686102,49.421877],[8.685842,49.421937],[8.685533,49.421752],[8.682789,49.419229],[8.682841,49.419028]]],"type":"Polygon"}},{"type":"Feature","properties":{"group_index":1,"value":300,"center":[8.686507286922733,49.41942863767977],"area":380377.43,"reachfactor":1,"total_pop":3237},"geometry":{"coordinates":[[[8.681131,49.41918],[8.681034,49.419049],[8.681032,49.419024],[8.681046,49.418946],[8.681056,49.418922],[8.681659,49.418156],[8.681798,49.418083],[8.68529,49.416505],[8.685368,49.416473],[8.687468,49.416065],[8.687822,49.41613],[8.687878,49.416163],[8.68937,49.417234],[8.689427,49.417276],[8.690714,49.41824],[8.691355,49.418961],[8.691666,49.419818],[8.691205,49.420659],[8.689768,49.421544],[8.68795,49.422219],[8.687369,49.422415],[8.686362,49.422744],[8.685098,49.423098],[8.684799,49.422897],[8.682113,49.420417],[8.681131,49.41918]]],"type":"Polygon"}}],"metadata":{"attribution":"openrouteservice.org | OpenStreetMap contributors","service":"isochrones","timestamp":1785973753017,"query":{"profile":"foot-walking","profileName":"foot-walking","locations":[[8.681495,49.41461],[8.686507,49.41943]],"range":[300,200],"options":{"round_trip":{"length":10000,"points":5,"seed":1}},"area_units":"m","attributes":["area","reachfactor","total_pop"]},"engine":{"version":"9.9.0","build_date":"2026-06-12T10:08:58Z","graph_date":"2026-07-28T19:03:26Z","osm_date":"2026-07-20T00:00:00Z"}}}