{"type":"FeatureCollection","bbox":[8.681496,49.414411,8.68787,49.420327],"features":[{"bbox":[8.681496,49.414411,8.68787,49.420327],"type":"Feature","properties":{"segments":[{"distance":1112.6,"duration":801.1,"steps":[{"distance":5.3,"duration":3.8,"type":11,"instruction":"Head east on Gerhart-Hauptmann-Straße","name":"Gerhart-Hauptmann-Straße","way_points":[0,1]},{"distance":5.9,"duration":4.2,"type":0,"instruction":"Turn left","name":"-","way_points":[1,3]},{"distance":129.7,"duration":93.4,"type":1,"instruction":"Turn right","name":"-","way_points":[3,7]},{"distance":155,"duration":111.6,"type":0,"instruction":"Turn left","name":"-","way_points":[7,17]},{"distance":89.9,"duration":64.7,"type":12,"instruction":"Keep left","name":"-","way_points":[17,23]},{"distance":10.1,"duration":7.2,"type":1,"instruction":"Turn right","name":"-","way_points":[23,27]},{"distance":94.2,"duration":67.8,"type":0,"instruction":"Turn left","name":"-","way_points":[27,35]},{"distance":2.7,"duration":2,"type":0,"instruction":"Turn left","name":"-","way_points":[35,36]},{"distance":179,"duration":128.9,"type":1,"instruction":"Turn right","name":"-","way_points":[36,39]},{"distance":124,"duration":89.3,"type":1,"instruction":"Turn right","name":"-","way_points":[39,40]},{"distance":6.4,"duration":4.6,"type":0,"instruction":"Turn left","name":"-","way_points":[40,42]},{"distance":3.4,"duration":2.5,"type":1,"instruction":"Turn right","name":"-","way_points":[42,44]},{"distance":9.5,"duration":6.8,"type":1,"instruction":"Turn right","name":"-","way_points":[44,46]},{"distance":118.3,"duration":85.2,"type":1,"instruction":"Turn right","name":"-","way_points":[46,56]},{"distance":28.1,"duration":20.2,"type":1,"instruction":"Turn right","name":"-","way_points":[56,58]},{"distance":53.7,"duration":38.7,"type":0,"instruction":"Turn left","name":"-","way_points":[58,61]},{"distance":13.7,"duration":9.8,"type":1,"instruction":"Turn right","name":"-","way_points":[61,63]},{"distance":18.9,"duration":13.6,"type":0,"instruction":"Turn left onto Werderplatz","name":"Werderplatz","way_points":[63,64]},{"distance":64.7,"duration":46.6,"type":1,"instruction":"Turn right onto Roonstraße","name":"Roonstraße","way_points":[64,65]},{"distance":0,"duration":0,"type":10,"instruction":"Arrive at Roonstraße, on the right","name":"-","way_points":[65,65]}]}],"way_points":[0,65],"summary":{"distance":1112.6,"duration":801.1}},"geometry":{"type":"LineString","coordinates":[[8.681496,49.414601],[8.68157,49.414605],[8.681577,49.414643],[8.68158,49.414658],[8.68232,49.414605],[8.682361,49.414601],[8.682385,49.414597],[8.683325,49.414411],[8.683451,49.414626],[8.683577,49.414924],[8.683607,49.415011],[8.683672,49.415236],[8.683714,49.415481],[8.683714,49.415686],[8.683707,49.4157],[8.683708,49.415727],[8.683707,49.415756],[8.683722,49.415767],[8.683732,49.415966],[8.683698,49.416495],[8.683695,49.416522],[8.683689,49.416547],[8.683689,49.416568],[8.683688,49.416575],[8.683709,49.416576],[8.683756,49.416578],[8.683796,49.41658],[8.683826,49.416582],[8.683813,49.416683],[8.683757,49.417014],[8.683702,49.4173],[8.683712,49.417327],[8.683712,49.417338],[8.68371,49.417368],[8.683706,49.417408],[8.683704,49.417424],[8.683668,49.417429],[8.683378,49.418521],[8.683349,49.418619],[8.683254,49.419017],[8.684938,49.419224],[8.684929,49.419256],[8.684926,49.419281],[8.684948,49.419291],[8.68495,49.419304],[8.685017,49.41931],[8.685079,49.419316],[8.685084,49.419308],[8.685101,49.419305],[8.686399,49.419451],[8.686429,49.419456],[8.686424,49.419484],[8.68644,49.419485],[8.686473,49.419488],[8.686522,49.419491],[8.686539,49.419492],[8.686528,49.419555],[8.686656,49.419565],[8.686914,49.419586],[8.686889,49.419703],[8.686884,49.419727],[8.686825,49.420065],[8.686882,49.42007],[8.687013,49.420078],[8.686984,49.420247],[8.68787,49.420327]]}}],"metadata":{"attribution":"openrouteservice.org | OpenStreetMap contributors","service":"routing","timestamp":1785919509876,"query":{"coordinates":[[8.681495,49.41461],[8.687872,49.420318]],"profile":"foot-hiking","profileName":"foot-hiking","format":"json"},"engine":{"version":"9.9.0","build_date":"2026-06-12T10:08:58Z","graph_date":"2026-07-30T08:01:49Z","osm_date":"2026-07-20T00:00:00Z"}}}