<?xml version="1.0" encoding="UTF-8" standalone="yes"?><gpx version="1.1" creator="openrouteservice" xmlns="https://raw.githubusercontent.com/GIScience/openrouteservice-schema/main/gpx/v2/ors-gpx.xsd"><metadata><name>openrouteservice directions</name><desc>This is a directions instructions file as GPX, generated from openrouteservice</desc><author><name>openrouteservice</name><email id="support" domain="openrouteservice.heigit.org"/><link href="https://openrouteservice.org/"><text>https://openrouteservice.org/</text><type>text/html</type></link></author><copyright author="openrouteservice.org | OpenStreetMap contributors"><year>2026</year><license>LGPL 3.0</license></copyright><time>2026-08-05T23:09:21.379Z</time><bounds maxlat="49.420327" maxlon="8.68787" minlat="49.414599" minlon="8.681423"/><extensions><system-message></system-message></extensions></metadata><rte><rtept lat="49.414601" lon="8.681496"><name>Gerhart-Hauptmann-Straße</name><desc>Head west on Gerhart-Hauptmann-Straße</desc><extensions><distance>1.9</distance><duration>1.4</duration><type>11</type><step>0</step></extensions></rtept><rtept lat="49.414599" lon="8.68147"><name>Wielandtstraße</name><desc>Turn sharp right onto Wielandtstraße</desc><extensions><distance>409.5</distance><duration>294.8</duration><type>3</type><step>1</step></extensions></rtept><rtept lat="49.41465" lon="8.681488"><name>Wielandtstraße</name><desc>Turn sharp right onto Wielandtstraße</desc><extensions><distance>409.5</distance><duration>294.8</duration><type>3</type><step>1</step></extensions></rtept><rtept lat="49.415706" lon="8.681424"><name>Wielandtstraße</name><desc>Turn sharp right onto Wielandtstraße</desc><extensions><distance>409.5</distance><duration>294.8</duration><type>3</type><step>1</step></extensions></rtept><rtept lat="49.415746" lon="8.681423"><name>Wielandtstraße</name><desc>Turn sharp right onto Wielandtstraße</desc><extensions><distance>409.5</distance><duration>294.8</duration><type>3</type><step>1</step></extensions></rtept><rtept lat="49.415795" lon="8.681426"><name>Wielandtstraße</name><desc>Turn sharp right onto Wielandtstraße</desc><extensions><distance>409.5</distance><duration>294.8</duration><type>3</type><step>1</step></extensions></rtept><rtept lat="49.41659" lon="8.681656"><name>Wielandtstraße</name><desc>Turn sharp right onto Wielandtstraße</desc><extensions><distance>409.5</distance><duration>294.8</duration><type>3</type><step>1</step></extensions></rtept><rtept lat="49.417081" lon="8.681826"><name>Wielandtstraße</name><desc>Turn sharp right onto Wielandtstraße</desc><extensions><distance>409.5</distance><duration>294.8</duration><type>3</type><step>1</step></extensions></rtept><rtept lat="49.417287" lon="8.681875"><name>Wielandtstraße</name><desc>Turn sharp right onto Wielandtstraße</desc><extensions><distance>409.5</distance><duration>294.8</duration><type>3</type><step>1</step></extensions></rtept><rtept lat="49.417392" lon="8.681881"><name>Wielandtstraße</name><desc>Turn sharp right onto Wielandtstraße</desc><extensions><distance>409.5</distance><duration>294.8</duration><type>3</type><step>1</step></extensions></rtept><rtept lat="49.417471" lon="8.681865"><name>Wielandtstraße</name><desc>Turn sharp right onto Wielandtstraße</desc><extensions><distance>409.5</distance><duration>294.8</duration><type>3</type><step>1</step></extensions></rtept><rtept lat="49.417632" lon="8.681784"><name>Wielandtstraße</name><desc>Turn sharp right onto Wielandtstraße</desc><extensions><distance>409.5</distance><duration>294.8</duration><type>3</type><step>1</step></extensions></rtept><rtept lat="49.41822" lon="8.681533"><name></name><desc>Turn right</desc><extensions><distance>127.4</distance><duration>91.7</duration><type>1</type><step>2</step></extensions></rtept><rtept lat="49.418226" lon="8.681582"><name></name><desc>Turn right</desc><extensions><distance>127.4</distance><duration>91.7</duration><type>1</type><step>2</step></extensions></rtept><rtept lat="49.418527" lon="8.683185"><name></name><desc>Turn right</desc><extensions><distance>127.4</distance><duration>91.7</duration><type>1</type><step>2</step></extensions></rtept><rtept lat="49.418522" lon="8.683227"><name></name><desc>Turn sharp left</desc><extensions><distance>8.7</distance><duration>6.3</duration><type>2</type><step>3</step></extensions></rtept><rtept lat="49.418538" lon="8.683215"><name></name><desc>Turn sharp left</desc><extensions><distance>8.7</distance><duration>6.3</duration><type>2</type><step>3</step></extensions></rtept><rtept lat="49.418555" lon="8.683217"><name></name><desc>Turn sharp left</desc><extensions><distance>8.7</distance><duration>6.3</duration><type>2</type><step>3</step></extensions></rtept><rtept lat="49.418582" lon="8.683213"><name></name><desc>Turn sharp left</desc><extensions><distance>8.7</distance><duration>6.3</duration><type>2</type><step>3</step></extensions></rtept><rtept lat="49.418598" lon="8.683214"><name></name><desc>Turn right</desc><extensions><distance>10.2</distance><duration>7.4</duration><type>1</type><step>4</step></extensions></rtept><rtept lat="49.418609" lon="8.683239"><name></name><desc>Turn right</desc><extensions><distance>10.2</distance><duration>7.4</duration><type>1</type><step>4</step></extensions></rtept><rtept lat="49.418613" lon="8.683285"><name></name><desc>Turn right</desc><extensions><distance>10.2</distance><duration>7.4</duration><type>1</type><step>4</step></extensions></rtept><rtept lat="49.418617" lon="8.683325"><name></name><desc>Turn right</desc><extensions><distance>10.2</distance><duration>7.4</duration><type>1</type><step>4</step></extensions></rtept><rtept lat="49.418619" lon="8.683349"><name></name><desc>Turn left</desc><extensions><distance>44.7</distance><duration>32.2</duration><type>0</type><step>5</step></extensions></rtept><rtept lat="49.419017" lon="8.683254"><name></name><desc>Turn right</desc><extensions><distance>124.0</distance><duration>89.3</duration><type>1</type><step>6</step></extensions></rtept><rtept lat="49.419224" lon="8.684938"><name></name><desc>Turn left</desc><extensions><distance>3.6</distance><duration>2.6</duration><type>0</type><step>7</step></extensions></rtept><rtept lat="49.419256" lon="8.684929"><name>Moltkestraße</name><desc>Turn right onto Moltkestraße</desc><extensions><distance>114.7</distance><duration>82.6</duration><type>1</type><step>8</step></extensions></rtept><rtept lat="49.419265" lon="8.685026"><name>Moltkestraße</name><desc>Turn right onto Moltkestraße</desc><extensions><distance>114.7</distance><duration>82.6</duration><type>1</type><step>8</step></extensions></rtept><rtept lat="49.419275" lon="8.68511"><name>Moltkestraße</name><desc>Turn right onto Moltkestraße</desc><extensions><distance>114.7</distance><duration>82.6</duration><type>1</type><step>8</step></extensions></rtept><rtept lat="49.41942" lon="8.686409"><name>Moltkestraße</name><desc>Turn right onto Moltkestraße</desc><extensions><distance>114.7</distance><duration>82.6</duration><type>1</type><step>8</step></extensions></rtept><rtept lat="49.419427" lon="8.686493"><name>Moltkestraße</name><desc>Keep left onto Moltkestraße</desc><extensions><distance>1.0</distance><duration>0.7</duration><type>12</type><step>9</step></extensions></rtept><rtept lat="49.419429" lon="8.686507"><name></name><desc>Arrive at Moltkestraße, on the left</desc><extensions><distance>0.0</distance><duration>0.0</duration><type>10</type><step>10</step></extensions></rtept><rtept lat="49.419429" lon="8.686507"><name>Moltkestraße</name><desc>Head east on Moltkestraße</desc><extensions><distance>38.1</distance><duration>27.4</duration><type>11</type><step>11</step></extensions></rtept><rtept lat="49.419475" lon="8.687029"><name></name><desc>Turn left</desc><extensions><distance>5.5</distance><duration>4.0</duration><type>0</type><step>12</step></extensions></rtept><rtept lat="49.419498" lon="8.687029"><name></name><desc>Turn left</desc><extensions><distance>5.5</distance><duration>4.0</duration><type>0</type><step>12</step></extensions></rtept><rtept lat="49.419525" lon="8.687032"><name></name><desc>Turn right</desc><extensions><distance>5.2</distance><duration>3.7</duration><type>1</type><step>13</step></extensions></rtept><rtept lat="49.419528" lon="8.687068"><name></name><desc>Turn right</desc><extensions><distance>5.2</distance><duration>3.7</duration><type>1</type><step>13</step></extensions></rtept><rtept lat="49.419533" lon="8.687102"><name>Werderplatz</name><desc>Turn left onto Werderplatz</desc><extensions><distance>79.8</distance><duration>57.5</duration><type>0</type><step>14</step></extensions></rtept><rtept lat="49.419599" lon="8.687093"><name>Werderplatz</name><desc>Turn left onto Werderplatz</desc><extensions><distance>79.8</distance><duration>57.5</duration><type>0</type><step>14</step></extensions></rtept><rtept lat="49.420078" lon="8.687013"><name>Werderplatz</name><desc>Turn left onto Werderplatz</desc><extensions><distance>79.8</distance><duration>57.5</duration><type>0</type><step>14</step></extensions></rtept><rtept lat="49.420247" lon="8.686984"><name>Roonstraße</name><desc>Turn right onto Roonstraße</desc><extensions><distance>64.7</distance><duration>46.6</duration><type>1</type><step>15</step></extensions></rtept><rtept lat="49.420327" lon="8.68787"><name></name><desc>Arrive at Roonstraße, on the right</desc><extensions><distance>0.0</distance><duration>0.0</duration><type>10</type><step>16</step></extensions></rtept><extensions><distance>1039.1</distance><duration>748.2</duration><ascent>0.0</ascent><descent>0.0</descent><avgspeed>5.0</avgspeed><bounds maxlat="49.420327" maxlon="8.68787" minlat="49.414599" minlon="8.681423"/></extensions></rte><extensions><attribution>openrouteservice.org | OpenStreetMap contributors</attribution><engine>9.9.0</engine><build_date>2026-06-12T10:08:58Z</build_date><graph_date>2026-07-28T19:03:26Z</graph_date><osm_date>2026-07-20T00:00:00Z</osm_date><profile>foot-walking</profile><preference>recommended</preference><language>en</language><distance-units>m</distance-units><instructions>true</instructions><elevation>false</elevation></extensions></gpx>