{"type":"FeatureCollection","bbox":[8.681423,49.414599,8.690123,49.420514],"features":[{"bbox":[8.681423,49.414599,8.690123,49.420514],"type":"Feature","properties":{"segments":[{"distance":1331.3,"duration":266.2,"steps":[{"distance":1.9,"duration":0.4,"type":11,"instruction":"Head west on Gerhart-Hauptmann-Straße","name":"Gerhart-Hauptmann-Straße","way_points":[0,1]},{"distance":416.6,"duration":83.3,"type":3,"instruction":"Turn sharp right onto Wielandtstraße","name":"Wielandtstraße","way_points":[1,13]},{"distance":132.6,"duration":26.5,"type":1,"instruction":"Turn right onto Seitzstraße","name":"Seitzstraße","way_points":[13,15]},{"distance":55.9,"duration":11.2,"type":0,"instruction":"Turn left onto Quinckestraße","name":"Quinckestraße","way_points":[15,18]},{"distance":510.6,"duration":102.1,"type":1,"instruction":"Turn right onto Moltkestraße","name":"Moltkestraße","way_points":[18,29]},{"distance":83,"duration":16.6,"type":2,"instruction":"Turn sharp left onto Handschuhsheimer Landstraße, B 3","name":"Handschuhsheimer Landstraße, B 3","way_points":[29,31]},{"distance":130.6,"duration":26.1,"type":0,"instruction":"Turn left onto Roonstraße","name":"Roonstraße","way_points":[31,33]},{"distance":0,"duration":0,"type":10,"instruction":"Arrive at Roonstraße, on the left","name":"-","way_points":[33,33]}]}],"way_points":[0,33],"summary":{"distance":1331.3,"duration":266.2}},"geometry":{"type":"LineString","coordinates":[[8.681496,49.414601],[8.68147,49.414599],[8.681488,49.41465],[8.681424,49.415706],[8.681423,49.415746],[8.681426,49.415795],[8.681656,49.41659],[8.681826,49.417081],[8.681875,49.417287],[8.681881,49.417392],[8.681865,49.417471],[8.681784,49.417632],[8.681533,49.41822],[8.681515,49.418283],[8.683217,49.418555],[8.683297,49.418563],[8.683285,49.418613],[8.683176,49.419008],[8.683166,49.419059],[8.683238,49.419067],[8.684929,49.419256],[8.685026,49.419265],[8.68511,49.419275],[8.686409,49.41942],[8.686493,49.419427],[8.687029,49.419475],[8.68711,49.419484],[8.687178,49.419496],[8.688398,49.41963],[8.690123,49.419833],[8.689854,49.420217],[8.689653,49.420514],[8.688601,49.420394],[8.68787,49.420327]]}}],"metadata":{"attribution":"openrouteservice.org | OpenStreetMap contributors","service":"routing","timestamp":1785919473581,"query":{"coordinates":[[8.681495,49.41461],[8.687872,49.420318]],"profile":"cycling-mountain","profileName":"cycling-mountain","format":"json"},"engine":{"version":"9.9.0","build_date":"2026-04-29T08:25:55Z","graph_date":"2026-05-18T06:38:05Z","osm_date":"2026-05-11T00:00:00Z"}}}