{"type":"FeatureCollection","bbox":[8.664647,49.40343,8.700307,49.432061],"features":[{"type":"Feature","properties":{"group_index":0,"value":200,"center":[8.681496287138598,49.414600974676375],"area":2213864.35,"reachfactor":1,"total_pop":14725},"geometry":{"coordinates":[[[8.67167,49.418966],[8.671623,49.418882],[8.670753,49.416603],[8.669868,49.413387],[8.669486,49.411929],[8.669481,49.411886],[8.671089,49.409903],[8.674477,49.407165],[8.676832,49.406303],[8.676846,49.406303],[8.677101,49.406317],[8.677148,49.406335],[8.677706,49.406683],[8.678048,49.407006],[8.678485,49.407824],[8.678674,49.408145],[8.682322,49.4123],[8.683134,49.41243],[8.683172,49.412434],[8.683584,49.412469],[8.683996,49.412504],[8.686425,49.412251],[8.690462,49.41124],[8.690645,49.411159],[8.691041,49.411115],[8.691042,49.411115],[8.692325,49.411268],[8.692586,49.411296],[8.69301,49.411571],[8.694624,49.412977],[8.695117,49.414856],[8.695116,49.414856],[8.695116,49.414861],[8.695116,49.414861],[8.693785,49.417205],[8.692527,49.418408],[8.692069,49.418745],[8.688312,49.421432],[8.686847,49.422196],[8.685702,49.422718],[8.681819,49.424466],[8.68074,49.424833],[8.680416,49.424778],[8.680033,49.424706],[8.677212,49.423064],[8.674596,49.421401],[8.672577,49.419876],[8.671977,49.419333],[8.67167,49.418966]]],"type":"Polygon"}},{"type":"Feature","properties":{"group_index":0,"value":300,"center":[8.681496287138598,49.414600974676375],"area":3973789.86,"reachfactor":0.8095,"total_pop":23756},"geometry":{"coordinates":[[[8.666913,49.419108],[8.666859,49.418752],[8.665783,49.415086],[8.664647,49.413033],[8.664875,49.412783],[8.665873,49.411774],[8.668401,49.409205],[8.670277,49.40688],[8.670848,49.406359],[8.674756,49.40478],[8.677498,49.403464],[8.677616,49.40343],[8.677646,49.403437],[8.681472,49.406301],[8.683513,49.407569],[8.684887,49.408717],[8.689544,49.410613],[8.691713,49.409904],[8.692485,49.409522],[8.692814,49.409377],[8.692933,49.409447],[8.694841,49.410831],[8.69584,49.411634],[8.700307,49.413685],[8.700237,49.414038],[8.696145,49.416788],[8.695425,49.417734],[8.693065,49.420722],[8.691135,49.422764],[8.689403,49.423865],[8.684007,49.426477],[8.683761,49.42674],[8.6833,49.427166],[8.68294,49.427171],[8.681694,49.427134],[8.676735,49.426378],[8.673339,49.424543],[8.673043,49.424338],[8.668585,49.420433],[8.667188,49.419459],[8.667019,49.419324],[8.666913,49.419108]]],"type":"Polygon"}},{"type":"Feature","properties":{"group_index":1,"value":200,"center":[8.686507286922733,49.41942863767977],"area":2561292.7,"reachfactor":1,"total_pop":19432},"geometry":{"coordinates":[[[8.679672,49.427483],[8.678207,49.42506],[8.675738,49.422231],[8.67486,49.421438],[8.673685,49.420222],[8.673167,49.419709],[8.673165,49.419654],[8.673166,49.419573],[8.67324,49.416991],[8.674589,49.415222],[8.677937,49.413315],[8.680058,49.412111],[8.6826,49.41071],[8.682638,49.4107],[8.686133,49.410411],[8.686609,49.41046],[8.691191,49.411124],[8.691524,49.411267],[8.695428,49.413752],[8.695501,49.413863],[8.695121,49.414775],[8.695828,49.420483],[8.69591,49.424082],[8.692587,49.426634],[8.687905,49.428074],[8.687495,49.42817],[8.68339,49.429085],[8.680473,49.428434],[8.680094,49.42834],[8.679672,49.427483]]],"type":"Polygon"}},{"type":"Feature","properties":{"group_index":1,"value":300,"center":[8.686507286922733,49.41942863767977],"area":3877742.65,"reachfactor":0.79,"total_pop":26374},"geometry":{"coordinates":[[[8.674685,49.426814],[8.672964,49.424452],[8.670127,49.421732],[8.66807,49.41931],[8.668089,49.418951],[8.668164,49.41883],[8.670493,49.415832],[8.67419,49.412458],[8.675663,49.411111],[8.676448,49.411089],[8.676808,49.411104],[8.682638,49.4107],[8.686133,49.410411],[8.686609,49.41046],[8.691525,49.409872],[8.692729,49.409231],[8.692833,49.40925],[8.694705,49.410474],[8.699542,49.413535],[8.6995,49.413892],[8.698937,49.414374],[8.696217,49.416815],[8.697683,49.421897],[8.697551,49.422232],[8.694,49.426678],[8.691046,49.430321],[8.69091,49.430385],[8.688554,49.430614],[8.682735,49.432061],[8.682698,49.432061],[8.682376,49.432047],[8.678931,49.430633],[8.676741,49.42943],[8.676446,49.429225],[8.674685,49.426814]]],"type":"Polygon"}}],"metadata":{"attribution":"openrouteservice.org | OpenStreetMap contributors","service":"isochrones","timestamp":1785973704864,"query":{"profile":"cycling-regular","profileName":"cycling-regular","locations":[[8.681495,49.41461],[8.686507,49.41943]],"range":[300,200],"options":{"round_trip":{"length":10000,"points":5,"seed":1}},"area_units":"m","attributes":["area","reachfactor","total_pop"]},"engine":{"version":"9.9.0","build_date":"2026-06-12T10:08:58Z","graph_date":"2026-07-27T01:13:39Z","osm_date":"2026-07-20T00:00:00Z"}}}