{"type":"FeatureCollection","bbox":[8.681423,49.414599,8.69198,49.420514],"features":[{"bbox":[8.681423,49.414599,8.69198,49.420514],"type":"Feature","properties":{"segments":[{"distance":1602.8,"duration":284.6,"steps":[{"distance":1.8,"duration":0.4,"type":11,"instruction":"Head west on Gerhart-Hauptmann-Straße","name":"Gerhart-Hauptmann-Straße","way_points":[0,1]},{"distance":313.8,"duration":75.3,"type":1,"instruction":"Turn right onto Wielandtstraße","name":"Wielandtstraße","way_points":[1,6]},{"distance":738.4,"duration":110.6,"type":1,"instruction":"Turn right onto Mönchhofstraße","name":"Mönchhofstraße","way_points":[6,21]},{"distance":418.1,"duration":66.8,"type":0,"instruction":"Turn left onto Handschuhsheimer Landstraße, B 3","name":"Handschuhsheimer Landstraße, B 3","way_points":[21,36]},{"distance":130.6,"duration":31.4,"type":0,"instruction":"Turn left onto Roonstraße","name":"Roonstraße","way_points":[36,38]},{"distance":0,"duration":0,"type":10,"instruction":"Arrive at Roonstraße, on the left","name":"-","way_points":[38,38]}]}],"way_points":[0,38],"summary":{"distance":1602.8,"duration":284.6}},"geometry":{"type":"LineString","coordinates":[[8.681495,49.414599],[8.68147,49.414599],[8.681488,49.41465],[8.681423,49.415746],[8.681656,49.41659],[8.681826,49.417081],[8.681881,49.417392],[8.682461,49.417389],[8.682676,49.417387],[8.682781,49.417386],[8.683023,49.417384],[8.683595,49.417372],[8.68536,49.417365],[8.686407,49.417365],[8.68703,49.41736],[8.687467,49.417351],[8.688793,49.417395],[8.690355,49.417442],[8.690445,49.417435],[8.691418,49.417172],[8.691825,49.417093],[8.69198,49.417121],[8.691931,49.417235],[8.691817,49.417369],[8.691428,49.417726],[8.691073,49.418051],[8.690936,49.418188],[8.690946,49.41825],[8.69092,49.418378],[8.690912,49.418411],[8.690667,49.418993],[8.690621,49.419095],[8.690391,49.419368],[8.690275,49.419577],[8.690123,49.419833],[8.689854,49.420217],[8.689653,49.420514],[8.688601,49.420394],[8.68787,49.420327]]}}],"metadata":{"attribution":"openrouteservice.org | OpenStreetMap contributors","service":"routing","timestamp":1785919523695,"query":{"coordinates":[[8.681495,49.41461],[8.687872,49.420318]],"profile":"driving-hgv","profileName":"driving-hgv","format":"json"},"engine":{"version":"9.9.0","build_date":"2026-06-12T10:08:58Z","graph_date":"2026-07-28T07:07:47Z","osm_date":"2026-07-20T00:00:00Z"}}}