{"type":"FeatureCollection","bbox":[8.681423,49.414599,8.690123,49.420514],"features":[{"bbox":[8.681423,49.414599,8.690123,49.420514],"type":"Feature","properties":{"segments":[{"distance":888.6,"duration":189.1,"steps":[{"distance":1.8,"duration":0.4,"type":11,"instruction":"Head west on Gerhart-Hauptmann-Straße","name":"Gerhart-Hauptmann-Straße","way_points":[0,1]},{"distance":313.8,"duration":75.3,"type":1,"instruction":"Turn right onto Wielandtstraße","name":"Wielandtstraße","way_points":[1,6]},{"distance":251.7,"duration":36.2,"type":1,"instruction":"Turn right onto Mönchhofstraße","name":"Mönchhofstraße","way_points":[6,12]},{"distance":212.6,"duration":51,"type":0,"instruction":"Turn left onto Keplerstraße","name":"Keplerstraße","way_points":[12,15]},{"distance":108.7,"duration":26.1,"type":1,"instruction":"Turn right onto Moltkestraße","name":"Moltkestraße","way_points":[15,17]},{"distance":0,"duration":0,"type":10,"instruction":"Arrive at Moltkestraße, on the left","name":"-","way_points":[17,17]}],"detourfactor":1.37,"percentage":64.98,"avgspeed":16.92},{"distance":479,"duration":102.5,"steps":[{"distance":265.4,"duration":63.7,"type":11,"instruction":"Head east on Moltkestraße","name":"Moltkestraße","way_points":[17,20]},{"distance":83,"duration":7.5,"type":2,"instruction":"Turn sharp left onto Handschuhsheimer Landstraße, B 3","name":"Handschuhsheimer Landstraße, B 3","way_points":[20,22]},{"distance":130.6,"duration":31.4,"type":0,"instruction":"Turn left onto Roonstraße","name":"Roonstraße","way_points":[22,24]},{"distance":0,"duration":0,"type":10,"instruction":"Arrive at Roonstraße, on the left","name":"-","way_points":[24,24]}],"detourfactor":3.41,"percentage":35.02,"avgspeed":16.82}],"extras":{"waytype":{"values":[[0,6,3],[6,12,2],[12,20,3],[20,22,2],[22,24,3]],"summary":[{"value":3,"distance":1032.9,"amount":75.53},{"value":2,"distance":334.7,"amount":24.47}]},"waycategory":{"values":[[0,24,0]],"summary":[{"value":0,"distance":1367.6,"amount":100}]},"countryinfo":{"values":[[0,24,74]],"summary":[{"value":74,"distance":1367.6,"amount":100}]},"surface":{"values":[[0,24,3]],"summary":[{"value":3,"distance":1367.6,"amount":100}]},"steepness":{"values":[[0,24,0]],"summary":[{"value":0,"distance":1367.6,"amount":100}]},"suitability":{"values":[[0,24,3]],"summary":[{"value":3,"distance":1367.6,"amount":100}]},"roadaccessrestrictions":{"values":[[0,24,0]],"summary":[{"value":0,"distance":1367.6,"amount":100}]},"traildifficulty":{"values":[[0,24,0]],"summary":[{"value":0,"distance":1367.6,"amount":100}]},"tollways":{"values":[[0,24,0]],"summary":[{"value":0,"distance":1367.6,"amount":100}]}},"warnings":[{"code":4,"message":"Extra info requested but not available: green, noise, shadow, osmid, csv"}],"way_points":[0,17,24],"summary":{"distance":1367.6,"duration":291.6}},"geometry":{"type":"LineString","coordinates":[[8.681495,49.414599],[8.68147,49.414599],[8.681488,49.41465],[8.681423,49.415746],[8.681656,49.41659],[8.681826,49.417081],[8.681881,49.417392],[8.682461,49.417389],[8.682676,49.417387],[8.682781,49.417386],[8.683023,49.417384],[8.683595,49.417372],[8.68536,49.417365],[8.685299,49.417726],[8.685035,49.419211],[8.685026,49.419265],[8.686493,49.419427],[8.686507,49.419429],[8.68711,49.419484],[8.688398,49.41963],[8.690123,49.419833],[8.689854,49.420217],[8.689653,49.420514],[8.688601,49.420394],[8.68787,49.420327]]}}],"metadata":{"attribution":"openrouteservice.org | OpenStreetMap contributors","service":"routing","timestamp":1785973156482,"query":{"coordinates":[[8.681495,49.41461],[8.686507,49.41943],[8.687872,49.420318]],"profile":"driving-car","profileName":"driving-car","format":"geojson","units":"m","attributes":["avgspeed","detourfactor","percentage"],"extra_info":["steepness","suitability","surface","waycategory","waytype","tollways","traildifficulty","osmid","roadaccessrestrictions","countryinfo","green","noise","csv","shadow"]},"engine":{"version":"9.9.0","build_date":"2026-06-12T10:08:58Z","graph_date":"2026-08-02T11:57:12Z","osm_date":"2026-07-27T15:16:41Z"}}}