<?xml version="1.0" encoding="UTF-8" standalone="yes"?><gpx version="1.1" creator="openrouteservice" xmlns="https://raw.githubusercontent.com/GIScience/openrouteservice-schema/main/gpx/v2/ors-gpx.xsd"><metadata><name>openrouteservice directions</name><desc>This is a directions instructions file as GPX, generated from openrouteservice</desc><author><name>openrouteservice</name><email id="support" domain="openrouteservice.heigit.org"/><link href="https://openrouteservice.org/"><text>https://openrouteservice.org/</text><type>text/html</type></link></author><copyright author="openrouteservice.org | OpenStreetMap contributors"><year>2026</year><license>LGPL 3.0</license></copyright><time>2026-08-05T23:09:32.441Z</time><bounds maxlat="49.420327" maxlon="8.68787" minlat="49.414411" minlon="8.681496"/><extensions><system-message></system-message></extensions></metadata><rte><rtept lat="49.414601" lon="8.681496"><name>Gerhart-Hauptmann-Straße</name><desc>Head east on Gerhart-Hauptmann-Straße</desc><extensions><distance>5.3</distance><duration>3.8</duration><type>11</type><step>0</step></extensions></rtept><rtept lat="49.414605" lon="8.68157"><name></name><desc>Turn left</desc><extensions><distance>5.9</distance><duration>4.2</duration><type>0</type><step>1</step></extensions></rtept><rtept lat="49.414643" lon="8.681577"><name></name><desc>Turn left</desc><extensions><distance>5.9</distance><duration>4.2</duration><type>0</type><step>1</step></extensions></rtept><rtept lat="49.414658" lon="8.68158"><name></name><desc>Turn right</desc><extensions><distance>129.7</distance><duration>93.4</duration><type>1</type><step>2</step></extensions></rtept><rtept lat="49.414605" lon="8.68232"><name></name><desc>Turn right</desc><extensions><distance>129.7</distance><duration>93.4</duration><type>1</type><step>2</step></extensions></rtept><rtept lat="49.414601" lon="8.682361"><name></name><desc>Turn right</desc><extensions><distance>129.7</distance><duration>93.4</duration><type>1</type><step>2</step></extensions></rtept><rtept lat="49.414597" lon="8.682385"><name></name><desc>Turn right</desc><extensions><distance>129.7</distance><duration>93.4</duration><type>1</type><step>2</step></extensions></rtept><rtept lat="49.414411" lon="8.683325"><name></name><desc>Turn left</desc><extensions><distance>155.0</distance><duration>111.6</duration><type>0</type><step>3</step></extensions></rtept><rtept lat="49.414626" lon="8.683451"><name></name><desc>Turn left</desc><extensions><distance>155.0</distance><duration>111.6</duration><type>0</type><step>3</step></extensions></rtept><rtept lat="49.414924" lon="8.683577"><name></name><desc>Turn left</desc><extensions><distance>155.0</distance><duration>111.6</duration><type>0</type><step>3</step></extensions></rtept><rtept lat="49.415011" lon="8.683607"><name></name><desc>Turn left</desc><extensions><distance>155.0</distance><duration>111.6</duration><type>0</type><step>3</step></extensions></rtept><rtept lat="49.415236" lon="8.683672"><name></name><desc>Turn left</desc><extensions><distance>155.0</distance><duration>111.6</duration><type>0</type><step>3</step></extensions></rtept><rtept lat="49.415481" lon="8.683714"><name></name><desc>Turn left</desc><extensions><distance>155.0</distance><duration>111.6</duration><type>0</type><step>3</step></extensions></rtept><rtept lat="49.415686" lon="8.683714"><name></name><desc>Turn left</desc><extensions><distance>155.0</distance><duration>111.6</duration><type>0</type><step>3</step></extensions></rtept><rtept lat="49.4157" lon="8.683707"><name></name><desc>Turn left</desc><extensions><distance>155.0</distance><duration>111.6</duration><type>0</type><step>3</step></extensions></rtept><rtept lat="49.415727" lon="8.683708"><name></name><desc>Turn left</desc><extensions><distance>155.0</distance><duration>111.6</duration><type>0</type><step>3</step></extensions></rtept><rtept lat="49.415756" lon="8.683707"><name></name><desc>Turn left</desc><extensions><distance>155.0</distance><duration>111.6</duration><type>0</type><step>3</step></extensions></rtept><rtept lat="49.415767" lon="8.683722"><name></name><desc>Keep left</desc><extensions><distance>89.9</distance><duration>64.7</duration><type>12</type><step>4</step></extensions></rtept><rtept lat="49.415966" lon="8.683732"><name></name><desc>Keep left</desc><extensions><distance>89.9</distance><duration>64.7</duration><type>12</type><step>4</step></extensions></rtept><rtept lat="49.416495" lon="8.683698"><name></name><desc>Keep left</desc><extensions><distance>89.9</distance><duration>64.7</duration><type>12</type><step>4</step></extensions></rtept><rtept lat="49.416522" lon="8.683695"><name></name><desc>Keep left</desc><extensions><distance>89.9</distance><duration>64.7</duration><type>12</type><step>4</step></extensions></rtept><rtept lat="49.416547" lon="8.683689"><name></name><desc>Keep left</desc><extensions><distance>89.9</distance><duration>64.7</duration><type>12</type><step>4</step></extensions></rtept><rtept lat="49.416568" lon="8.683689"><name></name><desc>Keep left</desc><extensions><distance>89.9</distance><duration>64.7</duration><type>12</type><step>4</step></extensions></rtept><rtept lat="49.416575" lon="8.683688"><name></name><desc>Turn right</desc><extensions><distance>10.1</distance><duration>7.2</duration><type>1</type><step>5</step></extensions></rtept><rtept lat="49.416576" lon="8.683709"><name></name><desc>Turn right</desc><extensions><distance>10.1</distance><duration>7.2</duration><type>1</type><step>5</step></extensions></rtept><rtept lat="49.416578" lon="8.683756"><name></name><desc>Turn right</desc><extensions><distance>10.1</distance><duration>7.2</duration><type>1</type><step>5</step></extensions></rtept><rtept lat="49.41658" lon="8.683796"><name></name><desc>Turn right</desc><extensions><distance>10.1</distance><duration>7.2</duration><type>1</type><step>5</step></extensions></rtept><rtept lat="49.416582" lon="8.683826"><name></name><desc>Turn left</desc><extensions><distance>94.2</distance><duration>67.8</duration><type>0</type><step>6</step></extensions></rtept><rtept lat="49.416683" lon="8.683813"><name></name><desc>Turn left</desc><extensions><distance>94.2</distance><duration>67.8</duration><type>0</type><step>6</step></extensions></rtept><rtept lat="49.417014" lon="8.683757"><name></name><desc>Turn left</desc><extensions><distance>94.2</distance><duration>67.8</duration><type>0</type><step>6</step></extensions></rtept><rtept lat="49.4173" lon="8.683702"><name></name><desc>Turn left</desc><extensions><distance>94.2</distance><duration>67.8</duration><type>0</type><step>6</step></extensions></rtept><rtept lat="49.417327" lon="8.683712"><name></name><desc>Turn left</desc><extensions><distance>94.2</distance><duration>67.8</duration><type>0</type><step>6</step></extensions></rtept><rtept lat="49.417338" lon="8.683712"><name></name><desc>Turn left</desc><extensions><distance>94.2</distance><duration>67.8</duration><type>0</type><step>6</step></extensions></rtept><rtept lat="49.417368" lon="8.68371"><name></name><desc>Turn left</desc><extensions><distance>94.2</distance><duration>67.8</duration><type>0</type><step>6</step></extensions></rtept><rtept lat="49.417408" lon="8.683706"><name></name><desc>Turn left</desc><extensions><distance>94.2</distance><duration>67.8</duration><type>0</type><step>6</step></extensions></rtept><rtept lat="49.417424" lon="8.683704"><name></name><desc>Turn left</desc><extensions><distance>2.7</distance><duration>2.0</duration><type>0</type><step>7</step></extensions></rtept><rtept lat="49.417429" lon="8.683668"><name></name><desc>Turn right</desc><extensions><distance>179.0</distance><duration>128.9</duration><type>1</type><step>8</step></extensions></rtept><rtept lat="49.418521" lon="8.683378"><name></name><desc>Turn right</desc><extensions><distance>179.0</distance><duration>128.9</duration><type>1</type><step>8</step></extensions></rtept><rtept lat="49.418619" lon="8.683349"><name></name><desc>Turn right</desc><extensions><distance>179.0</distance><duration>128.9</duration><type>1</type><step>8</step></extensions></rtept><rtept lat="49.419017" lon="8.683254"><name></name><desc>Turn right</desc><extensions><distance>124.0</distance><duration>89.3</duration><type>1</type><step>9</step></extensions></rtept><rtept lat="49.419224" lon="8.684938"><name></name><desc>Turn slight right</desc><extensions><distance>3.4</distance><duration>2.5</duration><type>5</type><step>10</step></extensions></rtept><rtept lat="49.419215" lon="8.684961"><name></name><desc>Turn slight right</desc><extensions><distance>3.4</distance><duration>2.5</duration><type>5</type><step>10</step></extensions></rtept><rtept lat="49.419203" lon="8.684971"><name></name><desc>Turn left</desc><extensions><distance>9.3</distance><duration>6.7</duration><type>0</type><step>11</step></extensions></rtept><rtept lat="49.419211" lon="8.685035"><name></name><desc>Turn left</desc><extensions><distance>9.3</distance><duration>6.7</duration><type>0</type><step>11</step></extensions></rtept><rtept lat="49.419218" lon="8.685098"><name></name><desc>Turn left</desc><extensions><distance>98.0</distance><duration>70.5</duration><type>0</type><step>12</step></extensions></rtept><rtept lat="49.41923" lon="8.685105"><name></name><desc>Turn left</desc><extensions><distance>98.0</distance><duration>70.5</duration><type>0</type><step>12</step></extensions></rtept><rtept lat="49.419236" lon="8.68512"><name></name><desc>Turn left</desc><extensions><distance>98.0</distance><duration>70.5</duration><type>0</type><step>12</step></extensions></rtept><rtept lat="49.419378" lon="8.686419"><name></name><desc>Turn left</desc><extensions><distance>4.7</distance><duration>3.4</duration><type>0</type><step>13</step></extensions></rtept><rtept lat="49.41942" lon="8.686409"><name>Moltkestraße</name><desc>Turn right onto Moltkestraße</desc><extensions><distance>6.2</distance><duration>4.5</duration><type>1</type><step>14</step></extensions></rtept><rtept lat="49.419427" lon="8.686493"><name>Moltkestraße</name><desc>Keep left onto Moltkestraße</desc><extensions><distance>1.0</distance><duration>0.7</duration><type>12</type><step>15</step></extensions></rtept><rtept lat="49.419429" lon="8.686507"><name></name><desc>Arrive at Moltkestraße, on the left</desc><extensions><distance>0.0</distance><duration>0.0</duration><type>10</type><step>16</step></extensions></rtept><rtept lat="49.419429" lon="8.686507"><name>Moltkestraße</name><desc>Head west on Moltkestraße</desc><extensions><distance>1.0</distance><duration>0.7</duration><type>11</type><step>17</step></extensions></rtept><rtept lat="49.419427" lon="8.686493"><name>Werderplatz</name><desc>Turn right onto Werderplatz</desc><extensions><distance>6.9</distance><duration>5.0</duration><type>1</type><step>18</step></extensions></rtept><rtept lat="49.419488" lon="8.686473"><name></name><desc>Turn right</desc><extensions><distance>11.8</distance><duration>8.5</duration><type>1</type><step>19</step></extensions></rtept><rtept lat="49.419491" lon="8.686522"><name></name><desc>Turn right</desc><extensions><distance>11.8</distance><duration>8.5</duration><type>1</type><step>19</step></extensions></rtept><rtept lat="49.419492" lon="8.686539"><name></name><desc>Turn right</desc><extensions><distance>11.8</distance><duration>8.5</duration><type>1</type><step>19</step></extensions></rtept><rtept lat="49.419555" lon="8.686528"><name></name><desc>Turn right</desc><extensions><distance>28.1</distance><duration>20.2</duration><type>1</type><step>20</step></extensions></rtept><rtept lat="49.419565" lon="8.686656"><name></name><desc>Turn right</desc><extensions><distance>28.1</distance><duration>20.2</duration><type>1</type><step>20</step></extensions></rtept><rtept lat="49.419586" lon="8.686914"><name></name><desc>Turn left</desc><extensions><distance>53.7</distance><duration>38.7</duration><type>0</type><step>21</step></extensions></rtept><rtept lat="49.419703" lon="8.686889"><name></name><desc>Turn left</desc><extensions><distance>53.7</distance><duration>38.7</duration><type>0</type><step>21</step></extensions></rtept><rtept lat="49.419727" lon="8.686884"><name></name><desc>Turn left</desc><extensions><distance>53.7</distance><duration>38.7</duration><type>0</type><step>21</step></extensions></rtept><rtept lat="49.420065" lon="8.686825"><name></name><desc>Turn right</desc><extensions><distance>13.7</distance><duration>9.8</duration><type>1</type><step>22</step></extensions></rtept><rtept lat="49.42007" lon="8.686882"><name></name><desc>Turn right</desc><extensions><distance>13.7</distance><duration>9.8</duration><type>1</type><step>22</step></extensions></rtept><rtept lat="49.420078" lon="8.687013"><name>Werderplatz</name><desc>Turn left onto Werderplatz</desc><extensions><distance>18.9</distance><duration>13.6</duration><type>0</type><step>23</step></extensions></rtept><rtept lat="49.420247" lon="8.686984"><name>Roonstraße</name><desc>Turn right onto Roonstraße</desc><extensions><distance>64.7</distance><duration>46.6</duration><type>1</type><step>24</step></extensions></rtept><rtept lat="49.420327" lon="8.68787"><name></name><desc>Arrive at Roonstraße, on the right</desc><extensions><distance>0.0</distance><duration>0.0</duration><type>10</type><step>25</step></extensions></rtept><extensions><distance>1117.4</distance><duration>804.5</duration><ascent>0.0</ascent><descent>0.0</descent><avgspeed>5.0</avgspeed><bounds maxlat="49.420327" maxlon="8.68787" minlat="49.414411" minlon="8.681496"/></extensions></rte><extensions><attribution>openrouteservice.org | OpenStreetMap contributors</attribution><engine>9.9.0</engine><build_date>2026-06-12T10:08:58Z</build_date><graph_date>2026-07-30T08:01:49Z</graph_date><osm_date>2026-07-20T00:00:00Z</osm_date><profile>foot-hiking</profile><preference>recommended</preference><language>en</language><distance-units>m</distance-units><instructions>true</instructions><elevation>false</elevation></extensions></gpx>