<?xml version="1.0" encoding="UTF-8" standalone="yes"?><gpx version="1.1" creator="openrouteservice" xmlns="https://raw.githubusercontent.com/GIScience/openrouteservice-schema/main/gpx/v2/ors-gpx.xsd"><metadata><name>openrouteservice directions</name><desc>This is a directions instructions file as GPX, generated from openrouteservice</desc><author><name>openrouteservice</name><email id="support" domain="openrouteservice.heigit.org"/><link href="https://openrouteservice.org/"><text>https://openrouteservice.org/</text><type>text/html</type></link></author><copyright author="openrouteservice.org | OpenStreetMap contributors"><year>2026</year><license>LGPL 3.0</license></copyright><time>2026-08-05T23:08:36.579Z</time><bounds maxlat="49.420514" maxlon="8.690123" minlat="49.414599" minlon="8.681423"/><extensions><system-message></system-message></extensions></metadata><rte><rtept lat="49.414601" lon="8.681496"><name>Gerhart-Hauptmann-Straße</name><desc>Head west on Gerhart-Hauptmann-Straße</desc><extensions><distance>1.9</distance><duration>0.4</duration><type>11</type><step>0</step></extensions></rtept><rtept lat="49.414599" lon="8.68147"><name>Wielandtstraße</name><desc>Turn sharp right onto Wielandtstraße</desc><extensions><distance>416.6</distance><duration>83.3</duration><type>3</type><step>1</step></extensions></rtept><rtept lat="49.41465" lon="8.681488"><name>Wielandtstraße</name><desc>Turn sharp right onto Wielandtstraße</desc><extensions><distance>416.6</distance><duration>83.3</duration><type>3</type><step>1</step></extensions></rtept><rtept lat="49.415706" lon="8.681424"><name>Wielandtstraße</name><desc>Turn sharp right onto Wielandtstraße</desc><extensions><distance>416.6</distance><duration>83.3</duration><type>3</type><step>1</step></extensions></rtept><rtept lat="49.415746" lon="8.681423"><name>Wielandtstraße</name><desc>Turn sharp right onto Wielandtstraße</desc><extensions><distance>416.6</distance><duration>83.3</duration><type>3</type><step>1</step></extensions></rtept><rtept lat="49.415795" lon="8.681426"><name>Wielandtstraße</name><desc>Turn sharp right onto Wielandtstraße</desc><extensions><distance>416.6</distance><duration>83.3</duration><type>3</type><step>1</step></extensions></rtept><rtept lat="49.41659" lon="8.681656"><name>Wielandtstraße</name><desc>Turn sharp right onto Wielandtstraße</desc><extensions><distance>416.6</distance><duration>83.3</duration><type>3</type><step>1</step></extensions></rtept><rtept lat="49.417081" lon="8.681826"><name>Wielandtstraße</name><desc>Turn sharp right onto Wielandtstraße</desc><extensions><distance>416.6</distance><duration>83.3</duration><type>3</type><step>1</step></extensions></rtept><rtept lat="49.417287" lon="8.681875"><name>Wielandtstraße</name><desc>Turn sharp right onto Wielandtstraße</desc><extensions><distance>416.6</distance><duration>83.3</duration><type>3</type><step>1</step></extensions></rtept><rtept lat="49.417392" lon="8.681881"><name>Wielandtstraße</name><desc>Turn sharp right onto Wielandtstraße</desc><extensions><distance>416.6</distance><duration>83.3</duration><type>3</type><step>1</step></extensions></rtept><rtept lat="49.417471" lon="8.681865"><name>Wielandtstraße</name><desc>Turn sharp right onto Wielandtstraße</desc><extensions><distance>416.6</distance><duration>83.3</duration><type>3</type><step>1</step></extensions></rtept><rtept lat="49.417632" lon="8.681784"><name>Wielandtstraße</name><desc>Turn sharp right onto Wielandtstraße</desc><extensions><distance>416.6</distance><duration>83.3</duration><type>3</type><step>1</step></extensions></rtept><rtept lat="49.41822" lon="8.681533"><name>Wielandtstraße</name><desc>Turn sharp right onto Wielandtstraße</desc><extensions><distance>416.6</distance><duration>83.3</duration><type>3</type><step>1</step></extensions></rtept><rtept lat="49.418283" lon="8.681515"><name>Seitzstraße</name><desc>Turn right onto Seitzstraße</desc><extensions><distance>132.6</distance><duration>26.5</duration><type>1</type><step>2</step></extensions></rtept><rtept lat="49.418555" lon="8.683217"><name>Seitzstraße</name><desc>Turn right onto Seitzstraße</desc><extensions><distance>132.6</distance><duration>26.5</duration><type>1</type><step>2</step></extensions></rtept><rtept lat="49.418563" lon="8.683297"><name>Quinckestraße</name><desc>Turn left onto Quinckestraße</desc><extensions><distance>55.9</distance><duration>11.2</duration><type>0</type><step>3</step></extensions></rtept><rtept lat="49.418613" lon="8.683285"><name>Quinckestraße</name><desc>Turn left onto Quinckestraße</desc><extensions><distance>55.9</distance><duration>11.2</duration><type>0</type><step>3</step></extensions></rtept><rtept lat="49.419008" lon="8.683176"><name>Quinckestraße</name><desc>Turn left onto Quinckestraße</desc><extensions><distance>55.9</distance><duration>11.2</duration><type>0</type><step>3</step></extensions></rtept><rtept lat="49.419059" lon="8.683166"><name>Moltkestraße</name><desc>Turn right onto Moltkestraße</desc><extensions><distance>245.2</distance><duration>49.0</duration><type>1</type><step>4</step></extensions></rtept><rtept lat="49.419067" lon="8.683238"><name>Moltkestraße</name><desc>Turn right onto Moltkestraße</desc><extensions><distance>245.2</distance><duration>49.0</duration><type>1</type><step>4</step></extensions></rtept><rtept lat="49.419256" lon="8.684929"><name>Moltkestraße</name><desc>Turn right onto Moltkestraße</desc><extensions><distance>245.2</distance><duration>49.0</duration><type>1</type><step>4</step></extensions></rtept><rtept lat="49.419265" lon="8.685026"><name>Moltkestraße</name><desc>Turn right onto Moltkestraße</desc><extensions><distance>245.2</distance><duration>49.0</duration><type>1</type><step>4</step></extensions></rtept><rtept lat="49.419275" lon="8.68511"><name>Moltkestraße</name><desc>Turn right onto Moltkestraße</desc><extensions><distance>245.2</distance><duration>49.0</duration><type>1</type><step>4</step></extensions></rtept><rtept lat="49.41942" lon="8.686409"><name>Moltkestraße</name><desc>Turn right onto Moltkestraße</desc><extensions><distance>245.2</distance><duration>49.0</duration><type>1</type><step>4</step></extensions></rtept><rtept lat="49.419427" lon="8.686493"><name>Moltkestraße</name><desc>Turn right onto Moltkestraße</desc><extensions><distance>245.2</distance><duration>49.0</duration><type>1</type><step>4</step></extensions></rtept><rtept lat="49.419429" lon="8.686507"><name></name><desc>Arrive at Moltkestraße, on the left</desc><extensions><distance>0.0</distance><duration>0.0</duration><type>10</type><step>5</step></extensions></rtept><rtept lat="49.419429" lon="8.686507"><name>Moltkestraße</name><desc>Head east on Moltkestraße</desc><extensions><distance>265.4</distance><duration>53.1</duration><type>11</type><step>6</step></extensions></rtept><rtept lat="49.419475" lon="8.687029"><name>Moltkestraße</name><desc>Head east on Moltkestraße</desc><extensions><distance>265.4</distance><duration>53.1</duration><type>11</type><step>6</step></extensions></rtept><rtept lat="49.419484" lon="8.68711"><name>Moltkestraße</name><desc>Head east on Moltkestraße</desc><extensions><distance>265.4</distance><duration>53.1</duration><type>11</type><step>6</step></extensions></rtept><rtept lat="49.419496" lon="8.687178"><name>Moltkestraße</name><desc>Head east on Moltkestraße</desc><extensions><distance>265.4</distance><duration>53.1</duration><type>11</type><step>6</step></extensions></rtept><rtept lat="49.41963" lon="8.688398"><name>Moltkestraße</name><desc>Head east on Moltkestraße</desc><extensions><distance>265.4</distance><duration>53.1</duration><type>11</type><step>6</step></extensions></rtept><rtept lat="49.419833" lon="8.690123"><name>Handschuhsheimer Landstraße, B 3</name><desc>Turn sharp left onto Handschuhsheimer Landstraße, B 3</desc><extensions><distance>83.0</distance><duration>16.6</duration><type>2</type><step>7</step></extensions></rtept><rtept lat="49.420217" lon="8.689854"><name>Handschuhsheimer Landstraße, B 3</name><desc>Turn sharp left onto Handschuhsheimer Landstraße, B 3</desc><extensions><distance>83.0</distance><duration>16.6</duration><type>2</type><step>7</step></extensions></rtept><rtept lat="49.420514" lon="8.689653"><name>Roonstraße</name><desc>Turn left onto Roonstraße</desc><extensions><distance>130.6</distance><duration>26.1</duration><type>0</type><step>8</step></extensions></rtept><rtept lat="49.420394" lon="8.688601"><name>Roonstraße</name><desc>Turn left onto Roonstraße</desc><extensions><distance>130.6</distance><duration>26.1</duration><type>0</type><step>8</step></extensions></rtept><rtept lat="49.420327" lon="8.68787"><name></name><desc>Arrive at Roonstraße, on the left</desc><extensions><distance>0.0</distance><duration>0.0</duration><type>10</type><step>9</step></extensions></rtept><extensions><distance>1331.2</distance><duration>266.2</duration><ascent>0.0</ascent><descent>0.0</descent><avgspeed>18.0</avgspeed><bounds maxlat="49.420514" maxlon="8.690123" minlat="49.414599" minlon="8.681423"/></extensions></rte><extensions><attribution>openrouteservice.org | OpenStreetMap contributors</attribution><engine>9.9.0</engine><build_date>2026-06-12T10:08:58Z</build_date><graph_date>2026-07-27T01:13:39Z</graph_date><osm_date>2026-07-20T00:00:00Z</osm_date><profile>cycling-regular</profile><preference>recommended</preference><language>en</language><distance-units>m</distance-units><instructions>true</instructions><elevation>false</elevation></extensions></gpx>