{"type":"FeatureCollection","bbox":[8.66822,49.403868,8.702729,49.434979],"features":[{"type":"Feature","properties":{"group_index":0,"value":200,"center":[8.681494991825476,49.41459939191395],"area":1371929.65,"reachfactor":0.0289,"total_pop":10118},"geometry":{"coordinates":[[[8.672947,49.418276],[8.672773,49.41796],[8.673122,49.417008],[8.675604,49.408677],[8.676539,49.408287],[8.676897,49.408248],[8.68152,49.411796],[8.686325,49.412709],[8.686868,49.412776],[8.691583,49.413159],[8.691707,49.413161],[8.692763,49.417062],[8.692716,49.417419],[8.690386,49.418706],[8.684954,49.420673],[8.680829,49.422107],[8.677502,49.422494],[8.677073,49.422236],[8.673903,49.419823],[8.672947,49.418276]]],"type":"Polygon"}},{"type":"Feature","properties":{"group_index":0,"value":300,"center":[8.681494991825476,49.41459939191395],"area":3446791.16,"reachfactor":0.0322,"total_pop":22248},"geometry":{"coordinates":[[[8.668271,49.418961],[8.669325,49.418937],[8.673122,49.417008],[8.668619,49.409552],[8.668429,49.409564],[8.668407,49.409204],[8.669094,49.408511],[8.669401,49.408323],[8.673618,49.40585],[8.677146,49.403868],[8.684342,49.407575],[8.691929,49.410792],[8.700348,49.413689],[8.700766,49.413777],[8.700692,49.41413],[8.694411,49.418176],[8.693387,49.420158],[8.693259,49.4204],[8.693077,49.420602],[8.687958,49.424478],[8.683995,49.428173],[8.683367,49.428517],[8.681312,49.427584],[8.681038,49.427351],[8.674423,49.422626],[8.67063,49.421809],[8.66822,49.419318],[8.668271,49.418961]]],"type":"Polygon"}},{"type":"Feature","properties":{"group_index":1,"value":200,"center":[8.686507287397566,49.41942866781333],"area":1534821.95,"reachfactor":0.0323,"total_pop":14343},"geometry":{"coordinates":[[[8.683251,49.428166],[8.683131,49.427256],[8.68311,49.427076],[8.679341,49.419098],[8.678893,49.418878],[8.677798,49.418218],[8.677498,49.418018],[8.676268,49.417191],[8.676263,49.417013],[8.676331,49.416829],[8.677842,49.415777],[8.685279,49.412502],[8.686907,49.412601],[8.692095,49.413088],[8.694048,49.413585],[8.694099,49.413941],[8.694196,49.414827],[8.694411,49.418176],[8.694259,49.422552],[8.692194,49.425033],[8.691308,49.425777],[8.683557,49.428356],[8.683279,49.428293],[8.683251,49.428166]]],"type":"Polygon"}},{"type":"Feature","properties":{"group_index":1,"value":300,"center":[8.686507287397566,49.41942866781333],"area":3464718.93,"reachfactor":0.0324,"total_pop":26148},"geometry":{"coordinates":[[[8.678833,49.431169],[8.678694,49.430334],[8.678011,49.427287],[8.674564,49.421214],[8.67258,49.419826],[8.672558,49.418277],[8.67457,49.412583],[8.676534,49.408889],[8.676714,49.408843],[8.676893,49.408912],[8.68152,49.411796],[8.686939,49.410119],[8.692186,49.408953],[8.692608,49.408964],[8.696605,49.411916],[8.70213,49.414059],[8.702729,49.414203],[8.702645,49.414553],[8.702046,49.414409],[8.699239,49.414384],[8.695109,49.420651],[8.695126,49.421863],[8.694956,49.422103],[8.690671,49.429238],[8.684571,49.433342],[8.682359,49.434979],[8.682021,49.434856],[8.678833,49.431169]]],"type":"Polygon"}}],"metadata":{"attribution":"openrouteservice.org | OpenStreetMap contributors","service":"isochrones","timestamp":1785973655180,"query":{"profile":"driving-hgv","profileName":"driving-hgv","locations":[[8.681495,49.41461],[8.686507,49.41943]],"range":[300,200],"options":{"avoid_features":["highways","tollways","ferries"],"round_trip":{"length":10000,"points":5,"seed":1}},"area_units":"m","attributes":["area","reachfactor","total_pop"]},"engine":{"version":"9.9.0","build_date":"2026-06-12T10:08:58Z","graph_date":"2026-07-28T07:07:47Z","osm_date":"2026-07-20T00:00:00Z"}}}