{"type":"FeatureCollection","bbox":[8.681496,49.414554,8.690123,49.420514],"features":[{"bbox":[8.681496,49.414554,8.690123,49.420514],"type":"Feature","properties":{"segments":[{"distance":893.4,"duration":166.7,"steps":[{"distance":61.3,"duration":12.3,"type":11,"instruction":"Head east on Gerhart-Hauptmann-Straße","name":"Gerhart-Hauptmann-Straße","way_points":[0,3]},{"distance":316.6,"duration":63.3,"type":0,"instruction":"Turn left onto Maulbeerweg","name":"Maulbeerweg","way_points":[3,10]},{"distance":194.2,"duration":26.9,"type":1,"instruction":"Turn right onto Mönchhofstraße","name":"Mönchhofstraße","way_points":[10,18]},{"distance":212.6,"duration":42.5,"type":0,"instruction":"Turn left onto Keplerstraße","name":"Keplerstraße","way_points":[18,24]},{"distance":108.7,"duration":21.7,"type":1,"instruction":"Turn right onto Moltkestraße","name":"Moltkestraße","way_points":[24,28]},{"distance":0,"duration":0,"type":10,"instruction":"Arrive at Moltkestraße, on the left","name":"-","way_points":[28,28]}],"detourfactor":1.38,"percentage":65.1,"avgspeed":19.29},{"distance":479,"duration":91.7,"steps":[{"distance":265.4,"duration":53.1,"type":11,"instruction":"Head east on Moltkestraße","name":"Moltkestraße","way_points":[28,33]},{"distance":83,"duration":12.5,"type":2,"instruction":"Turn sharp left onto Handschuhsheimer Landstraße, B 3","name":"Handschuhsheimer Landstraße, B 3","way_points":[33,35]},{"distance":130.6,"duration":26.1,"type":0,"instruction":"Turn left onto Roonstraße","name":"Roonstraße","way_points":[35,37]},{"distance":0,"duration":0,"type":10,"instruction":"Arrive at Roonstraße, on the left","name":"-","way_points":[37,37]}],"detourfactor":3.41,"percentage":34.9,"avgspeed":18.8}],"extras":{"waytype":{"values":[[0,10,3],[10,18,2],[18,33,3],[33,35,2],[35,37,3]],"summary":[{"value":3,"distance":1095.2,"amount":79.8},{"value":2,"distance":277.2,"amount":20.2}]},"waycategory":{"values":[[0,37,0]],"summary":[{"value":0,"distance":1372.4,"amount":100}]},"surface":{"values":[[0,37,3]],"summary":[{"value":3,"distance":1372.4,"amount":100}]},"steepness":{"values":[[0,37,0]],"summary":[{"value":0,"distance":1372.4,"amount":100}]},"suitability":{"values":[[0,33,8],[33,35,9],[35,37,8]],"summary":[{"value":8,"distance":1289.4,"amount":93.95},{"value":9,"distance":83,"amount":6.05}]},"traildifficulty":{"values":[[0,37,0]],"summary":[{"value":0,"distance":1372.4,"amount":100}]}},"warnings":[{"code":4,"message":"Extra info requested but not available: tollways, green, noise, shadow, osmid, roadaccessrestrictions, countryinfo, csv"}],"way_points":[0,28,37],"summary":{"distance":1372.4,"duration":258.4}},"geometry":{"type":"LineString","coordinates":[[8.681496,49.414601],[8.68157,49.414605],[8.682287,49.414564],[8.682339,49.414554],[8.682361,49.414601],[8.682569,49.415701],[8.682572,49.415738],[8.682571,49.415779],[8.682673,49.416497],[8.682675,49.417319],[8.682676,49.417387],[8.682781,49.417386],[8.683023,49.417384],[8.68338,49.41738],[8.683595,49.417372],[8.68371,49.417368],[8.684668,49.41737],[8.685294,49.417365],[8.68536,49.417365],[8.685344,49.417457],[8.685299,49.417726],[8.685213,49.418242],[8.685129,49.418709],[8.685035,49.419211],[8.685026,49.419265],[8.68511,49.419275],[8.686409,49.41942],[8.686493,49.419427],[8.686507,49.419429],[8.687029,49.419475],[8.68711,49.419484],[8.687178,49.419496],[8.688398,49.41963],[8.690123,49.419833],[8.689854,49.420217],[8.689653,49.420514],[8.688601,49.420394],[8.68787,49.420327]]}}],"metadata":{"attribution":"openrouteservice.org | OpenStreetMap contributors","service":"routing","timestamp":1785973192083,"query":{"coordinates":[[8.681495,49.41461],[8.686507,49.41943],[8.687872,49.420318]],"profile":"cycling-road","profileName":"cycling-road","format":"geojson","units":"m","attributes":["avgspeed","detourfactor","percentage"],"extra_info":["steepness","suitability","surface","waycategory","waytype","tollways","traildifficulty","osmid","roadaccessrestrictions","countryinfo","green","noise","csv","shadow"]},"engine":{"version":"9.9.0","build_date":"2026-06-12T10:08:58Z","graph_date":"2026-07-29T03:00:50Z","osm_date":"2026-07-20T00:00:00Z"}}}