{"type":"FeatureCollection","bbox":[8.681496,49.414411,8.68787,49.420327],"features":[{"bbox":[8.681496,49.414411,8.68787,49.420327],"type":"Feature","properties":{"segments":[{"distance":918.6,"duration":661.3,"steps":[{"distance":5.3,"duration":3.8,"type":11,"instruction":"Head east on Gerhart-Hauptmann-Straße","name":"Gerhart-Hauptmann-Straße","way_points":[0,1]},{"distance":5.9,"duration":4.2,"type":0,"instruction":"Turn left","name":"-","way_points":[1,3]},{"distance":129.7,"duration":93.4,"type":1,"instruction":"Turn right","name":"-","way_points":[3,7]},{"distance":155,"duration":111.6,"type":0,"instruction":"Turn left","name":"-","way_points":[7,17]},{"distance":89.9,"duration":64.7,"type":12,"instruction":"Keep left","name":"-","way_points":[17,23]},{"distance":10.1,"duration":7.2,"type":1,"instruction":"Turn right","name":"-","way_points":[23,27]},{"distance":94.2,"duration":67.8,"type":0,"instruction":"Turn left","name":"-","way_points":[27,35]},{"distance":2.7,"duration":2,"type":0,"instruction":"Turn left","name":"-","way_points":[35,36]},{"distance":179,"duration":128.9,"type":1,"instruction":"Turn right","name":"-","way_points":[36,39]},{"distance":124,"duration":89.3,"type":1,"instruction":"Turn right","name":"-","way_points":[39,40]},{"distance":3.4,"duration":2.5,"type":5,"instruction":"Turn slight right","name":"-","way_points":[40,42]},{"distance":9.3,"duration":6.7,"type":0,"instruction":"Turn left","name":"-","way_points":[42,44]},{"distance":98,"duration":70.5,"type":0,"instruction":"Turn left","name":"-","way_points":[44,47]},{"distance":4.7,"duration":3.4,"type":0,"instruction":"Turn left","name":"-","way_points":[47,48]},{"distance":6.2,"duration":4.5,"type":1,"instruction":"Turn right onto Moltkestraße","name":"Moltkestraße","way_points":[48,49]},{"distance":1,"duration":0.7,"type":12,"instruction":"Keep left onto Moltkestraße","name":"Moltkestraße","way_points":[49,50]},{"distance":0,"duration":0,"type":10,"instruction":"Arrive at Moltkestraße, on the left","name":"-","way_points":[50,50]}],"detourfactor":1.42,"percentage":82.21,"avgspeed":5},{"distance":198.8,"duration":143.2,"steps":[{"distance":1,"duration":0.7,"type":11,"instruction":"Head west on Moltkestraße","name":"Moltkestraße","way_points":[50,51]},{"distance":6.9,"duration":5,"type":1,"instruction":"Turn right onto Werderplatz","name":"Werderplatz","way_points":[51,52]},{"distance":11.8,"duration":8.5,"type":1,"instruction":"Turn right","name":"-","way_points":[52,55]},{"distance":28.1,"duration":20.2,"type":1,"instruction":"Turn right","name":"-","way_points":[55,57]},{"distance":53.7,"duration":38.7,"type":0,"instruction":"Turn left","name":"-","way_points":[57,60]},{"distance":13.7,"duration":9.8,"type":1,"instruction":"Turn right","name":"-","way_points":[60,62]},{"distance":18.9,"duration":13.6,"type":0,"instruction":"Turn left onto Werderplatz","name":"Werderplatz","way_points":[62,63]},{"distance":64.7,"duration":46.6,"type":1,"instruction":"Turn right onto Roonstraße","name":"Roonstraße","way_points":[63,64]},{"distance":0,"duration":0,"type":10,"instruction":"Arrive at Roonstraße, on the right","name":"-","way_points":[64,64]}],"detourfactor":1.42,"percentage":17.79,"avgspeed":5}],"extras":{"waytype":{"values":[[0,1,3],[1,2,7],[2,3,4],[3,48,7],[48,49,3],[49,58,7],[58,59,8],[59,64,7]],"summary":[{"value":7,"distance":1101.6,"amount":98.58},{"value":3,"distance":11.5,"amount":1.03},{"value":8,"distance":2.7,"amount":0.24},{"value":4,"distance":1.6,"amount":0.14}]},"waycategory":{"values":[[0,58,0],[58,59,4],[59,64,0]],"summary":[{"value":0,"distance":1114.7,"amount":99.76},{"value":4,"distance":2.7,"amount":0.24}]},"green":{"values":[[0,1,10],[1,48,10],[48,49,10],[49,51,10],[51,52,8],[52,55,10],[55,56,8],[56,58,7],[58,60,5],[60,62,7],[62,63,8],[63,64,10]],"summary":[{"value":10,"distance":996.1,"amount":89.15},{"value":7,"distance":45.6,"amount":4.08},{"value":5,"distance":40.6,"amount":3.63},{"value":8,"distance":35.1,"amount":3.14}]},"surface":{"values":[[0,2,3],[2,3,1],[3,4,14],[4,6,3],[6,14,14],[14,16,3],[16,20,14],[20,22,3],[22,24,14],[24,26,3],[26,32,14],[32,35,3],[35,41,14],[41,45,3],[45,47,14],[47,49,3],[49,52,0],[52,53,3],[53,55,8],[55,58,10],[58,59,14],[59,62,10],[62,64,0]],"summary":[{"value":14,"distance":853.9,"amount":76.42},{"value":10,"distance":92.8,"amount":8.3},{"value":0,"distance":92.5,"amount":8.28},{"value":3,"distance":68.3,"amount":6.11},{"value":8,"distance":8.3,"amount":0.74},{"value":1,"distance":1.6,"amount":0.14}]},"steepness":{"values":[[0,64,0]],"summary":[{"value":0,"distance":1117.4,"amount":100}]},"suitability":{"values":[[0,1,8],[1,2,9],[2,3,8],[3,48,9],[48,52,8],[52,58,9],[58,59,8],[59,62,9],[62,64,8]],"summary":[{"value":9,"distance":1009,"amount":90.3},{"value":8,"distance":108.4,"amount":9.7}]},"noise":{"values":[[0,1,10],[1,48,7],[48,49,8],[49,51,7],[51,52,8],[52,55,7],[55,63,8],[63,64,10]],"summary":[{"value":7,"distance":919.9,"amount":82.32},{"value":8,"distance":127.4,"amount":11.41},{"value":10,"distance":70.1,"amount":6.27}]},"traildifficulty":{"values":[[0,64,0]],"summary":[{"value":0,"distance":1117.4,"amount":100}]}},"warnings":[{"code":4,"message":"Extra info requested but not available: tollways, shadow, osmid, roadaccessrestrictions, countryinfo, csv"}],"way_points":[0,50,64],"summary":{"distance":1117.4,"duration":804.5}},"geometry":{"type":"LineString","coordinates":[[8.681496,49.414601],[8.68157,49.414605],[8.681577,49.414643],[8.68158,49.414658],[8.68232,49.414605],[8.682361,49.414601],[8.682385,49.414597],[8.683325,49.414411],[8.683451,49.414626],[8.683577,49.414924],[8.683607,49.415011],[8.683672,49.415236],[8.683714,49.415481],[8.683714,49.415686],[8.683707,49.4157],[8.683708,49.415727],[8.683707,49.415756],[8.683722,49.415767],[8.683732,49.415966],[8.683698,49.416495],[8.683695,49.416522],[8.683689,49.416547],[8.683689,49.416568],[8.683688,49.416575],[8.683709,49.416576],[8.683756,49.416578],[8.683796,49.41658],[8.683826,49.416582],[8.683813,49.416683],[8.683757,49.417014],[8.683702,49.4173],[8.683712,49.417327],[8.683712,49.417338],[8.68371,49.417368],[8.683706,49.417408],[8.683704,49.417424],[8.683668,49.417429],[8.683378,49.418521],[8.683349,49.418619],[8.683254,49.419017],[8.684938,49.419224],[8.684961,49.419215],[8.684971,49.419203],[8.685035,49.419211],[8.685098,49.419218],[8.685105,49.41923],[8.68512,49.419236],[8.686419,49.419378],[8.686409,49.41942],[8.686493,49.419427],[8.686507,49.419429],[8.686493,49.419427],[8.686473,49.419488],[8.686522,49.419491],[8.686539,49.419492],[8.686528,49.419555],[8.686656,49.419565],[8.686914,49.419586],[8.686889,49.419703],[8.686884,49.419727],[8.686825,49.420065],[8.686882,49.42007],[8.687013,49.420078],[8.686984,49.420247],[8.68787,49.420327]]}}],"metadata":{"attribution":"openrouteservice.org | OpenStreetMap contributors","service":"routing","timestamp":1785973239917,"query":{"coordinates":[[8.681495,49.41461],[8.686507,49.41943],[8.687872,49.420318]],"profile":"foot-hiking","profileName":"foot-hiking","format":"geojson","units":"m","attributes":["avgspeed","detourfactor","percentage"],"extra_info":["steepness","suitability","surface","waycategory","waytype","tollways","traildifficulty","osmid","roadaccessrestrictions","countryinfo","green","noise","csv","shadow"]},"engine":{"version":"9.9.0","build_date":"2026-06-12T10:08:58Z","graph_date":"2026-07-30T08:01:49Z","osm_date":"2026-07-20T00:00:00Z"}}}