<?xml version="1.0" encoding="UTF-8" standalone="yes"?><gpx version="1.1" creator="openrouteservice" xmlns="https://raw.githubusercontent.com/GIScience/openrouteservice-schema/main/gpx/v2/ors-gpx.xsd"><metadata><name>openrouteservice directions</name><desc>This is a directions instructions file as GPX, generated from openrouteservice</desc><author><name>openrouteservice</name><email id="support" domain="openrouteservice.heigit.org"/><link href="https://openrouteservice.org/"><text>https://openrouteservice.org/</text><type>text/html</type></link></author><copyright author="openrouteservice.org | OpenStreetMap contributors"><year>2026</year><license>LGPL 3.0</license></copyright><time>2026-08-05T23:07:45.100Z</time><bounds maxlat="49.420514" maxlon="8.690123" minlat="49.414599" minlon="8.681423"/><extensions><system-message></system-message></extensions></metadata><rte><rtept lat="49.414599" lon="8.681495"><name>Gerhart-Hauptmann-Straße</name><desc>Head west on Gerhart-Hauptmann-Straße</desc><extensions><distance>1.8</distance><duration>0.4</duration><type>11</type><step>0</step></extensions></rtept><rtept lat="49.414599" lon="8.68147"><name>Wielandtstraße</name><desc>Turn right onto Wielandtstraße</desc><extensions><distance>313.8</distance><duration>75.3</duration><type>1</type><step>1</step></extensions></rtept><rtept lat="49.41465" lon="8.681488"><name>Wielandtstraße</name><desc>Turn right onto Wielandtstraße</desc><extensions><distance>313.8</distance><duration>75.3</duration><type>1</type><step>1</step></extensions></rtept><rtept lat="49.415746" lon="8.681423"><name>Wielandtstraße</name><desc>Turn right onto Wielandtstraße</desc><extensions><distance>313.8</distance><duration>75.3</duration><type>1</type><step>1</step></extensions></rtept><rtept lat="49.41659" lon="8.681656"><name>Wielandtstraße</name><desc>Turn right onto Wielandtstraße</desc><extensions><distance>313.8</distance><duration>75.3</duration><type>1</type><step>1</step></extensions></rtept><rtept lat="49.417081" lon="8.681826"><name>Wielandtstraße</name><desc>Turn right onto Wielandtstraße</desc><extensions><distance>313.8</distance><duration>75.3</duration><type>1</type><step>1</step></extensions></rtept><rtept lat="49.417392" lon="8.681881"><name>Mönchhofstraße</name><desc>Turn right onto Mönchhofstraße</desc><extensions><distance>251.7</distance><duration>36.2</duration><type>1</type><step>2</step></extensions></rtept><rtept lat="49.417389" lon="8.682461"><name>Mönchhofstraße</name><desc>Turn right onto Mönchhofstraße</desc><extensions><distance>251.7</distance><duration>36.2</duration><type>1</type><step>2</step></extensions></rtept><rtept lat="49.417387" lon="8.682676"><name>Mönchhofstraße</name><desc>Turn right onto Mönchhofstraße</desc><extensions><distance>251.7</distance><duration>36.2</duration><type>1</type><step>2</step></extensions></rtept><rtept lat="49.417386" lon="8.682781"><name>Mönchhofstraße</name><desc>Turn right onto Mönchhofstraße</desc><extensions><distance>251.7</distance><duration>36.2</duration><type>1</type><step>2</step></extensions></rtept><rtept lat="49.417384" lon="8.683023"><name>Mönchhofstraße</name><desc>Turn right onto Mönchhofstraße</desc><extensions><distance>251.7</distance><duration>36.2</duration><type>1</type><step>2</step></extensions></rtept><rtept lat="49.417372" lon="8.683595"><name>Mönchhofstraße</name><desc>Turn right onto Mönchhofstraße</desc><extensions><distance>251.7</distance><duration>36.2</duration><type>1</type><step>2</step></extensions></rtept><rtept lat="49.417365" lon="8.68536"><name>Keplerstraße</name><desc>Turn left onto Keplerstraße</desc><extensions><distance>212.6</distance><duration>51.0</duration><type>0</type><step>3</step></extensions></rtept><rtept lat="49.417726" lon="8.685299"><name>Keplerstraße</name><desc>Turn left onto Keplerstraße</desc><extensions><distance>212.6</distance><duration>51.0</duration><type>0</type><step>3</step></extensions></rtept><rtept lat="49.419211" lon="8.685035"><name>Keplerstraße</name><desc>Turn left onto Keplerstraße</desc><extensions><distance>212.6</distance><duration>51.0</duration><type>0</type><step>3</step></extensions></rtept><rtept lat="49.419265" lon="8.685026"><name>Moltkestraße</name><desc>Turn right onto Moltkestraße</desc><extensions><distance>108.7</distance><duration>26.1</duration><type>1</type><step>4</step></extensions></rtept><rtept lat="49.419427" lon="8.686493"><name>Moltkestraße</name><desc>Turn right onto Moltkestraße</desc><extensions><distance>108.7</distance><duration>26.1</duration><type>1</type><step>4</step></extensions></rtept><rtept lat="49.419429" lon="8.686507"><name></name><desc>Arrive at Moltkestraße, on the left</desc><extensions><distance>0.0</distance><duration>0.0</duration><type>10</type><step>5</step></extensions></rtept><rtept lat="49.419429" lon="8.686507"><name>Moltkestraße</name><desc>Head east on Moltkestraße</desc><extensions><distance>265.4</distance><duration>63.7</duration><type>11</type><step>6</step></extensions></rtept><rtept lat="49.419484" lon="8.68711"><name>Moltkestraße</name><desc>Head east on Moltkestraße</desc><extensions><distance>265.4</distance><duration>63.7</duration><type>11</type><step>6</step></extensions></rtept><rtept lat="49.41963" lon="8.688398"><name>Moltkestraße</name><desc>Head east on Moltkestraße</desc><extensions><distance>265.4</distance><duration>63.7</duration><type>11</type><step>6</step></extensions></rtept><rtept lat="49.419833" lon="8.690123"><name>Handschuhsheimer Landstraße, B 3</name><desc>Turn sharp left onto Handschuhsheimer Landstraße, B 3</desc><extensions><distance>83.0</distance><duration>7.5</duration><type>2</type><step>7</step></extensions></rtept><rtept lat="49.420217" lon="8.689854"><name>Handschuhsheimer Landstraße, B 3</name><desc>Turn sharp left onto Handschuhsheimer Landstraße, B 3</desc><extensions><distance>83.0</distance><duration>7.5</duration><type>2</type><step>7</step></extensions></rtept><rtept lat="49.420514" lon="8.689653"><name>Roonstraße</name><desc>Turn left onto Roonstraße</desc><extensions><distance>130.6</distance><duration>31.4</duration><type>0</type><step>8</step></extensions></rtept><rtept lat="49.420394" lon="8.688601"><name>Roonstraße</name><desc>Turn left onto Roonstraße</desc><extensions><distance>130.6</distance><duration>31.4</duration><type>0</type><step>8</step></extensions></rtept><rtept lat="49.420327" lon="8.68787"><name></name><desc>Arrive at Roonstraße, on the left</desc><extensions><distance>0.0</distance><duration>0.0</duration><type>10</type><step>9</step></extensions></rtept><extensions><distance>1367.6</distance><duration>291.6</duration><ascent>0.0</ascent><descent>0.0</descent><avgspeed>16.9</avgspeed><bounds maxlat="49.420514" maxlon="8.690123" minlat="49.414599" minlon="8.681423"/></extensions></rte><extensions><attribution>openrouteservice.org | OpenStreetMap contributors</attribution><engine>9.9.0</engine><build_date>2026-06-12T10:08:58Z</build_date><graph_date>2026-08-02T11:57:12Z</graph_date><osm_date>2026-07-27T15:16:41Z</osm_date><profile>driving-car</profile><preference>recommended</preference><language>en</language><distance-units>m</distance-units><instructions>true</instructions><elevation>false</elevation></extensions></gpx>