{"type":"FeatureCollection","bbox":[8.661865,49.400858,8.704757,49.435169],"features":[{"type":"Feature","properties":{"group_index":0,"value":200,"center":[8.681496287138598,49.414600974676375]},"geometry":{"coordinates":[[[8.668645,49.418412],[8.668643,49.418344],[8.668648,49.418205],[8.667447,49.413393],[8.666483,49.412081],[8.666482,49.412075],[8.666549,49.411899],[8.668376,49.410062],[8.671954,49.407061],[8.673308,49.406259],[8.676722,49.404287],[8.676959,49.404196],[8.676965,49.404196],[8.677307,49.404319],[8.679667,49.406002],[8.68104,49.406997],[8.681742,49.407996],[8.681748,49.408006],[8.681994,49.408892],[8.686425,49.412251],[8.690792,49.411405],[8.690875,49.411372],[8.692071,49.411438],[8.692887,49.411441],[8.695753,49.411535],[8.695778,49.411537],[8.696339,49.411784],[8.697414,49.413656],[8.69741,49.413739],[8.696533,49.415433],[8.693932,49.419214],[8.69028,49.422131],[8.688864,49.423057],[8.68582,49.424288],[8.682677,49.426297],[8.682168,49.42641],[8.680523,49.426375],[8.680418,49.426353],[8.677571,49.425054],[8.673554,49.422953],[8.670296,49.420604],[8.668645,49.418412]]],"type":"Polygon"}},{"type":"Feature","properties":{"group_index":0,"value":300,"center":[8.681496287138598,49.414600974676375]},"geometry":{"coordinates":[[[8.667228,49.423261],[8.666934,49.423052],[8.665674,49.422123],[8.665382,49.421914],[8.662323,49.418741],[8.661865,49.415882],[8.662839,49.412547],[8.663808,49.410046],[8.663851,49.409976],[8.664803,49.408524],[8.666974,49.405282],[8.667127,49.405087],[8.669021,49.404416],[8.670644,49.403947],[8.675419,49.403312],[8.678937,49.400858],[8.680529,49.40119],[8.680743,49.401479],[8.682137,49.403085],[8.685041,49.405586],[8.68534,49.405786],[8.687035,49.406976],[8.691271,49.406914],[8.692569,49.406721],[8.693033,49.406681],[8.693113,49.406679],[8.694463,49.408023],[8.698916,49.411519],[8.700161,49.412335],[8.704757,49.414534],[8.70471,49.414891],[8.704402,49.41485],[8.704093,49.41481],[8.703824,49.414762],[8.703562,49.414716],[8.702692,49.414379],[8.701489,49.414091],[8.696498,49.416919],[8.695436,49.422113],[8.695458,49.422473],[8.692682,49.42501],[8.691294,49.425867],[8.687252,49.428211],[8.685197,49.429176],[8.68418,49.42954],[8.682702,49.429919],[8.682343,49.429884],[8.682036,49.429744],[8.677529,49.428297],[8.674983,49.428879],[8.670841,49.428114],[8.670547,49.427906],[8.667228,49.423261]]],"type":"Polygon"}},{"type":"Feature","properties":{"group_index":1,"value":200,"center":[8.686507286922733,49.41942863767977]},"geometry":{"coordinates":[[[8.676701,49.426907],[8.674299,49.423906],[8.671786,49.421446],[8.670098,49.419696],[8.670097,49.419675],[8.670097,49.419608],[8.670098,49.419587],[8.670799,49.4172],[8.67164,49.415439],[8.673467,49.414172],[8.678046,49.410875],[8.68067,49.41015],[8.68183,49.410427],[8.686425,49.412251],[8.692191,49.411003],[8.692225,49.411007],[8.694372,49.41131],[8.69483,49.411501],[8.695303,49.411793],[8.696518,49.414025],[8.69652,49.414041],[8.696718,49.416387],[8.698278,49.42039],[8.696915,49.423919],[8.695624,49.425894],[8.691011,49.429564],[8.687559,49.430015],[8.684757,49.430737],[8.68252,49.431301],[8.682391,49.431295],[8.678908,49.429899],[8.677944,49.429126],[8.676701,49.426907]]],"type":"Polygon"}},{"type":"Feature","properties":{"group_index":1,"value":300,"center":[8.686507286922733,49.41942863767977]},"geometry":{"coordinates":[[[8.670489,49.427988],[8.668208,49.424553],[8.66708,49.422848],[8.663308,49.419089],[8.663384,49.418737],[8.66357,49.41862],[8.667684,49.415783],[8.671411,49.411497],[8.675222,49.40867],[8.676468,49.408112],[8.676733,49.408002],[8.676886,49.408088],[8.677849,49.408627],[8.68067,49.41015],[8.684824,49.409739],[8.686693,49.409039],[8.687301,49.408706],[8.689558,49.407611],[8.691067,49.406878],[8.692692,49.406281],[8.69359,49.406659],[8.694411,49.407561],[8.694573,49.407747],[8.699152,49.41149],[8.700592,49.412396],[8.704123,49.41445],[8.704061,49.414804],[8.703811,49.41476],[8.703562,49.414716],[8.702692,49.414379],[8.701489,49.414091],[8.699327,49.414266],[8.696693,49.416607],[8.698278,49.42039],[8.697683,49.421897],[8.697551,49.422232],[8.696915,49.423919],[8.696016,49.429401],[8.696013,49.429761],[8.695317,49.43106],[8.689568,49.432353],[8.684068,49.43435],[8.682244,49.435165],[8.682169,49.435169],[8.678726,49.433634],[8.675994,49.432855],[8.674253,49.432397],[8.670489,49.427988]]],"type":"Polygon"}}],"metadata":{"attribution":"openrouteservice.org | OpenStreetMap contributors","service":"isochrones","timestamp":1785921055766,"query":{"profile":"cycling-electric","profileName":"cycling-electric","locations":[[8.681495,49.41461],[8.686507,49.41943]],"range":[300,200]},"engine":{"version":"9.9.0","build_date":"2026-06-12T10:08:58Z","graph_date":"2026-07-28T13:09:49Z","osm_date":"2026-07-20T00:00:00Z"}}}