{"type":"FeatureCollection","bbox":[8.681423,49.414599,8.68787,49.420327],"features":[{"bbox":[8.681423,49.414599,8.68787,49.420327],"type":"Feature","properties":{"segments":[{"distance":845.8,"duration":609,"steps":[{"distance":1.9,"duration":1.4,"type":11,"instruction":"Head west on Gerhart-Hauptmann-Straße","name":"Gerhart-Hauptmann-Straße","way_points":[0,1]},{"distance":409.5,"duration":294.8,"type":3,"instruction":"Turn sharp right onto Wielandtstraße","name":"Wielandtstraße","way_points":[1,12]},{"distance":127.4,"duration":91.7,"type":1,"instruction":"Turn right","name":"-","way_points":[12,15]},{"distance":8.7,"duration":6.3,"type":2,"instruction":"Turn sharp left","name":"-","way_points":[15,19]},{"distance":10.2,"duration":7.4,"type":1,"instruction":"Turn right","name":"-","way_points":[19,23]},{"distance":44.7,"duration":32.2,"type":0,"instruction":"Turn left","name":"-","way_points":[23,24]},{"distance":124,"duration":89.3,"type":1,"instruction":"Turn right","name":"-","way_points":[24,25]},{"distance":3.6,"duration":2.6,"type":0,"instruction":"Turn left","name":"-","way_points":[25,26]},{"distance":114.7,"duration":82.6,"type":1,"instruction":"Turn right onto Moltkestraße","name":"Moltkestraße","way_points":[26,30]},{"distance":1,"duration":0.7,"type":12,"instruction":"Keep left onto Moltkestraße","name":"Moltkestraße","way_points":[30,31]},{"distance":0,"duration":0,"type":10,"instruction":"Arrive at Moltkestraße, on the left","name":"-","way_points":[31,31]}],"detourfactor":1.31,"percentage":81.4,"avgspeed":5},{"distance":193.3,"duration":139.2,"steps":[{"distance":38.1,"duration":27.4,"type":11,"instruction":"Head east on Moltkestraße","name":"Moltkestraße","way_points":[31,32]},{"distance":5.5,"duration":4,"type":0,"instruction":"Turn left","name":"-","way_points":[32,34]},{"distance":5.2,"duration":3.7,"type":1,"instruction":"Turn right","name":"-","way_points":[34,36]},{"distance":79.8,"duration":57.5,"type":0,"instruction":"Turn left onto Werderplatz","name":"Werderplatz","way_points":[36,39]},{"distance":64.7,"duration":46.6,"type":1,"instruction":"Turn right onto Roonstraße","name":"Roonstraße","way_points":[39,40]},{"distance":0,"duration":0,"type":10,"instruction":"Arrive at Roonstraße, on the right","name":"-","way_points":[40,40]}],"detourfactor":1.38,"percentage":18.6,"avgspeed":5}],"extras":{"waytype":{"values":[[0,9,3],[9,26,7],[26,30,3],[30,40,7]],"summary":[{"value":7,"distance":608.5,"amount":58.56},{"value":3,"distance":430.6,"amount":41.44}]},"waycategory":{"values":[[0,40,0]],"summary":[{"value":0,"distance":1039.1,"amount":100}]},"green":{"values":[[0,1,10],[1,26,10],[26,30,10],[30,36,10],[36,39,8],[39,40,10]],"summary":[{"value":10,"distance":959.3,"amount":92.32},{"value":8,"distance":79.8,"amount":7.68}]},"surface":{"values":[[0,9,3],[9,12,0],[12,13,3],[13,16,14],[16,18,3],[18,20,14],[20,22,3],[22,25,14],[25,30,3],[30,32,0],[32,33,3],[33,34,8],[34,35,10],[35,36,3],[36,40,0]],"summary":[{"value":3,"distance":454,"amount":43.69},{"value":14,"distance":300.2,"amount":28.89},{"value":0,"distance":279.2,"amount":26.87},{"value":8,"distance":3,"amount":0.29},{"value":10,"distance":2.7,"amount":0.26}]},"steepness":{"values":[[0,40,0]],"summary":[{"value":0,"distance":1039.1,"amount":100}]},"suitability":{"values":[[0,40,8]],"summary":[{"value":8,"distance":1039.1,"amount":100}]},"noise":{"values":[[0,1,10],[1,26,7],[26,30,8],[30,36,7],[36,39,8],[39,40,10]],"summary":[{"value":7,"distance":777.9,"amount":74.86},{"value":8,"distance":194.6,"amount":18.72},{"value":10,"distance":66.6,"amount":6.41}]},"traildifficulty":{"values":[[0,40,0]],"summary":[{"value":0,"distance":1039.1,"amount":100}]}},"warnings":[{"code":4,"message":"Extra info requested but not available: tollways, shadow, osmid, roadaccessrestrictions, countryinfo, csv"}],"way_points":[0,31,40],"summary":{"distance":1039.1,"duration":748.2}},"geometry":{"type":"LineString","coordinates":[[8.681496,49.414601],[8.68147,49.414599],[8.681488,49.41465],[8.681424,49.415706],[8.681423,49.415746],[8.681426,49.415795],[8.681656,49.41659],[8.681826,49.417081],[8.681875,49.417287],[8.681881,49.417392],[8.681865,49.417471],[8.681784,49.417632],[8.681533,49.41822],[8.681582,49.418226],[8.683185,49.418527],[8.683227,49.418522],[8.683215,49.418538],[8.683217,49.418555],[8.683213,49.418582],[8.683214,49.418598],[8.683239,49.418609],[8.683285,49.418613],[8.683325,49.418617],[8.683349,49.418619],[8.683254,49.419017],[8.684938,49.419224],[8.684929,49.419256],[8.685026,49.419265],[8.68511,49.419275],[8.686409,49.41942],[8.686493,49.419427],[8.686507,49.419429],[8.687029,49.419475],[8.687029,49.419498],[8.687032,49.419525],[8.687068,49.419528],[8.687102,49.419533],[8.687093,49.419599],[8.687013,49.420078],[8.686984,49.420247],[8.68787,49.420327]]}}],"metadata":{"attribution":"openrouteservice.org | OpenStreetMap contributors","service":"routing","timestamp":1785973230675,"query":{"coordinates":[[8.681495,49.41461],[8.686507,49.41943],[8.687872,49.420318]],"profile":"foot-walking","profileName":"foot-walking","format":"geojson","units":"m","attributes":["avgspeed","detourfactor","percentage"],"extra_info":["steepness","suitability","surface","waycategory","waytype","tollways","traildifficulty","osmid","roadaccessrestrictions","countryinfo","green","noise","csv","shadow"]},"engine":{"version":"9.9.0","build_date":"2026-06-12T10:08:58Z","graph_date":"2026-07-28T19:03:26Z","osm_date":"2026-07-20T00:00:00Z"}}}