{"type":"FeatureCollection","bbox":[8.681423,49.414599,8.690123,49.420514],"features":[{"bbox":[8.681423,49.414599,8.690123,49.420514],"type":"Feature","properties":{"segments":[{"distance":1406.6,"duration":281.4,"steps":[{"distance":1.8,"duration":0.4,"type":11,"instruction":"Head west on Gerhart-Hauptmann-Straße","name":"Gerhart-Hauptmann-Straße","way_points":[0,1]},{"distance":313.8,"duration":75.3,"type":1,"instruction":"Turn right onto Wielandtstraße","name":"Wielandtstraße","way_points":[1,6]},{"distance":500.2,"duration":76.3,"type":1,"instruction":"Turn right onto Mönchhofstraße","name":"Mönchhofstraße","way_points":[6,16]},{"distance":250.3,"duration":60.1,"type":0,"instruction":"Turn left onto Erwin-Rohde-Straße","name":"Erwin-Rohde-Straße","way_points":[16,20]},{"distance":126.8,"duration":30.4,"type":1,"instruction":"Turn right onto Moltkestraße","name":"Moltkestraße","way_points":[20,21]},{"distance":83,"duration":7.5,"type":2,"instruction":"Turn sharp left onto Handschuhsheimer Landstraße, B 3","name":"Handschuhsheimer Landstraße, B 3","way_points":[21,23]},{"distance":130.6,"duration":31.4,"type":0,"instruction":"Turn left onto Roonstraße","name":"Roonstraße","way_points":[23,25]},{"distance":0,"duration":0,"type":10,"instruction":"Arrive at Roonstraße, on the left","name":"-","way_points":[25,25]}]}],"way_points":[0,25],"summary":{"distance":1406.6,"duration":281.4}},"geometry":{"type":"LineString","coordinates":[[8.681495,49.414599],[8.68147,49.414599],[8.681488,49.41465],[8.681423,49.415746],[8.681656,49.41659],[8.681826,49.417081],[8.681881,49.417392],[8.682461,49.417389],[8.682676,49.417387],[8.682781,49.417386],[8.683023,49.417384],[8.683595,49.417372],[8.68536,49.417365],[8.686407,49.417365],[8.68703,49.41736],[8.687467,49.417351],[8.688793,49.417395],[8.68871,49.418194],[8.688647,49.418465],[8.688539,49.418964],[8.688398,49.41963],[8.690123,49.419833],[8.689854,49.420217],[8.689653,49.420514],[8.688601,49.420394],[8.68787,49.420327]]}}],"metadata":{"attribution":"openrouteservice.org | OpenStreetMap contributors","service":"routing","timestamp":1785918938970,"query":{"coordinates":[[8.681495,49.41461],[8.687872,49.420318]],"profile":"driving-car","profileName":"driving-car","format":"json"},"engine":{"version":"9.9.0","build_date":"2026-06-12T10:08:58Z","graph_date":"2026-08-02T11:57:12Z","osm_date":"2026-07-27T15:16:41Z"}}}