{"type":"FeatureCollection","bbox":[8.681423,49.414599,8.68787,49.420327],"features":[{"bbox":[8.681423,49.414599,8.68787,49.420327],"type":"Feature","properties":{"segments":[{"distance":1039.1,"duration":748.1,"steps":[{"distance":1.9,"duration":1.4,"type":11,"instruction":"Head west on Gerhart-Hauptmann-Straße","name":"Gerhart-Hauptmann-Straße","way_points":[0,1]},{"distance":409.5,"duration":294.8,"type":3,"instruction":"Turn sharp right onto Wielandtstraße","name":"Wielandtstraße","way_points":[1,12]},{"distance":127.4,"duration":91.7,"type":1,"instruction":"Turn right","name":"-","way_points":[12,15]},{"distance":8.7,"duration":6.3,"type":2,"instruction":"Turn sharp left","name":"-","way_points":[15,19]},{"distance":10.2,"duration":7.4,"type":1,"instruction":"Turn right","name":"-","way_points":[19,23]},{"distance":44.7,"duration":32.2,"type":0,"instruction":"Turn left","name":"-","way_points":[23,24]},{"distance":124,"duration":89.3,"type":1,"instruction":"Turn right","name":"-","way_points":[24,25]},{"distance":3.6,"duration":2.6,"type":0,"instruction":"Turn left","name":"-","way_points":[25,26]},{"distance":153.8,"duration":110.7,"type":1,"instruction":"Turn right onto Moltkestraße","name":"Moltkestraße","way_points":[26,31]},{"distance":5.5,"duration":4,"type":0,"instruction":"Turn left","name":"-","way_points":[31,33]},{"distance":5.2,"duration":3.7,"type":1,"instruction":"Turn right","name":"-","way_points":[33,35]},{"distance":79.8,"duration":57.5,"type":0,"instruction":"Turn left onto Werderplatz","name":"Werderplatz","way_points":[35,38]},{"distance":64.7,"duration":46.6,"type":1,"instruction":"Turn right onto Roonstraße","name":"Roonstraße","way_points":[38,39]},{"distance":0,"duration":0,"type":10,"instruction":"Arrive at Roonstraße, on the right","name":"-","way_points":[39,39]}]}],"way_points":[0,39],"summary":{"distance":1039.1,"duration":748.1}},"geometry":{"type":"LineString","coordinates":[[8.681496,49.414601],[8.68147,49.414599],[8.681488,49.41465],[8.681424,49.415706],[8.681423,49.415746],[8.681426,49.415795],[8.681656,49.41659],[8.681826,49.417081],[8.681875,49.417287],[8.681881,49.417392],[8.681865,49.417471],[8.681784,49.417632],[8.681533,49.41822],[8.681582,49.418226],[8.683185,49.418527],[8.683227,49.418522],[8.683215,49.418538],[8.683217,49.418555],[8.683213,49.418582],[8.683214,49.418598],[8.683239,49.418609],[8.683285,49.418613],[8.683325,49.418617],[8.683349,49.418619],[8.683254,49.419017],[8.684938,49.419224],[8.684929,49.419256],[8.685026,49.419265],[8.68511,49.419275],[8.686409,49.41942],[8.686493,49.419427],[8.687029,49.419475],[8.687029,49.419498],[8.687032,49.419525],[8.687068,49.419528],[8.687102,49.419533],[8.687093,49.419599],[8.687013,49.420078],[8.686984,49.420247],[8.68787,49.420327]]}}],"metadata":{"attribution":"openrouteservice.org | OpenStreetMap contributors","service":"routing","timestamp":1785919496112,"query":{"coordinates":[[8.681495,49.41461],[8.687872,49.420318]],"profile":"foot-walking","profileName":"foot-walking","format":"json"},"engine":{"version":"9.9.0","build_date":"2026-06-12T10:08:58Z","graph_date":"2026-07-28T19:03:26Z","osm_date":"2026-07-20T00:00:00Z"}}}